Name,Address,Latitude,Longitude,Homepage,Description
旭川市旭山動物園,〒078-8205 北海道旭川市東旭川町倉沼,43.768642400000004,142.4792728778424,,旭川駅から路線バスで約40分、広大な自然に囲まれた中でのびのびと動物たちが過ごす「旭川市旭山動物園」では、命の尊さ・美しさをテーマにご案内しております。ホッキョクグマやペンギン、レッサーパンダなど人気の動物たちがたくさん待っていますよ。小動物と触れ合えるコーナーもありますので、お子さまもご一緒にお楽しみいただけます。
登別温泉,〒059-0551 北海道登別市登別温泉町,42.4947756,141.1451398,http://www.noboribetsu-spa.jp/,登別温泉は北海道屈指の温泉地で、豊富な湯量と多彩な泉質に恵まれた温泉郷。火山性景勝地である「地獄谷」は登別温泉最大の泉源地で、１日１万トンのお湯が自然湧出している。また、地獄谷の周辺には遊歩道も整備されており、「奥の湯」や「大湯沼」などの景勝地を散策することができる。大湯沼川沿いの探勝歩道途中には全国でも珍しい「天然足湯」が体験できる場所が整備されており、国内外を問わず多くの方に人気のスポットだ。
円山動物園,〒064-0959 北海道札幌市中央区宮ヶ丘３-１,43.0487514,141.30612703087962,http://www.city.sapporo.jp/zoo,ほ乳類、鳥類、爬虫類など動物約160種、700点を飼育する道内有数の動物園。　子どもに人気のライオンやキリンがいる熱帯動物館をはじめ、6種類のクマを展示している世界の熊館、高さ15mのジャングルジムがあり生態展示を目的としたチンパンジー館、人も動物も快適に過ごせるエゾシカ・オオカミ舎、ヒツジやヤギに触れることができるこども動物園などがあり、年間を通して動物を見ることができる。　敷地内には、迫力いっぱいのループ&コークやバイキングなど人気の遊具が揃った遊園地「円山子供の国キッドランド」を併設。大人も子どもも一日中楽しめる施設として、休日は家族連れや若者などで賑わう。
洞爺湖,北海道虻田郡洞爺湖町／壮瞥町,42.6019661,140.89569112064035,http://www.laketoya.com,支笏洞爺国立公園にある湖。日本で9番目に大きい湖。火山の活動によってできた、ほぼ円形のカルデラ湖。中島に森林博物館がある。昭和新山、有珠山、遠くに羊蹄山を望む。南西岸は洞爺湖温泉で、旅館・ホテルが林立し、バスや遊覧船の拠点になっている。山々と湖がおりなす景観美は、北海道三大景観に数えられる。
北海道神宮,〒064-8505 北海道札幌市中央区宮ヶ丘474,43.05457975,141.30920485279125,http://www.hokkaidojingu.or.jp/,北海道の総鎮守。創建1869年。約18万平方mの境内地は桜の名所となっている。毎年、初詣をはじめ、多くの参拝客が訪れるほか、6月には北海道神宮例祭（札幌まつり）が開かれ、お囃子にのって神輿や山車が市内を練り歩く姿が見られる。
支笏湖,〒066-0000 北海道千歳市,42.7538546,141.3275268775211,,"支笏湖は支笏洞爺国立公園に属するカルデラ湖で、長径13ｋｍ、短径5ｋｍのほぼ東西に長いマユ型をしています。シコツとはアイヌ語で「大きな窪地」という意味で、周囲は約40キロ、最大深度は約363ｍ、千歳市の重要な観光スポットとなっています。また、日本で最もきれいな湖の１つで、日本最北の不凍湖としても知られています。　支笏湖周辺にはオコタンペ湖や苔の洞門、風不死岳、恵庭岳、樽前山などの高さが1,000ｍを越す山々や、天然の深い森など、美しい自然が残されています。　支笏湖周辺には支笏湖温泉、丸駒温泉、いとう温泉の3つの温泉があるほか、ボート遊びやキャンプ、スキューバダイビング、カヌーなども楽しむことができるほか、「支笏湖湖水まつり」や「支笏湖紅葉まつり」、「千歳・支笏湖氷濤まつり」など、様々なイベントが開催されています。"
白い恋人パーク,〒063-0052 北海道札幌市西区宮の沢二条2-11-36,43.0886903,141.2716802,,"「白い恋人パーク」は、北海道札幌市にあるお菓子のテーマパークです。北海道土産として人気のお菓子である「白い恋人」の製造工程を見学できたり、お菓子作りを体験できたり、人気のお土産を購入できたりと、さまざなな形で「白い恋人」に親しめます。大きな白い恋人のモニュメントやお菓子の家、ロンドンバスなどフォトジェニックなアイテムが多いのも特徴です。パーク内の「カフェ・あんとるぽー」ではお酒もご用意しているため、大人の方もぜひお越しください。ワイングラスで提供する、見た目もおしゃれな「アイス ブリュードコーヒー」はイチオシの商品。広いパーク内には、ローズガーデンやチョコレートラウンジなどお洒落なスポットが他にもたくさんあるので、ぜひ優雅な雰囲気を楽しんでみてください。
また、シーズンごとに開催されるイベントも要チェック。2017年の冬には、サッカー場やスケートリンクを開放してプロジェクションマッピングのショーやスケートが楽しめる「スイーツドリームイルミネーション」を開催。イベントの際も、アソビューの電子チケットを購入すれば、お得に利用できます。"
モエレ沼公園,〒007-0011 北海道札幌市東区モエレ沼公園１-１,43.122131,141.428317,http://moerenumapark.jp/,世界的に有名な彫刻家イサム・ノグチが設計した広大な自然公園。「公園全体をひとつの彫刻作品にする」というコンセプトで設計された園内には、氏がデザインした126基ものユニークな彫刻遊具が点在する。公園の象徴的な建築物「ガラスのピラミッド」をはじめ、一面に新緑が広がる「モエレ山」、光と水の彫刻と称される「海の噴水」など、魅力的な施設が多い。春は花見、夏はモエレビーチの水遊び、秋は伝統的な花火イベント、冬はスキーと、四季で楽しめるレジャーも充実している。
函館山,〒040-0000 北海道函館市函館山,41.7593192,140.703984,,世界三大夜景のひとつに認定された絶景を眺められる山で、函館エリア有数の観光スポット。山麓駅にある「函館山ロープウェイ」に乗れば、わずか3分で山頂展望台に到着。両側を津軽海峡と函館港に挟まれた扇状に広がる市街地が特徴的で、夜になると煌びやかに光り輝く美しい夜景を見られる。標高が334mと低い山なので、軽装でも1時間程度で登れるハイキングコースも整備されている。
藻岩山,〒064-0942 北海道札幌市中央区伏見５丁目３-７,43.0223946,141.3223386,http://www.sapporo-dc.co.jp/,札幌市のほぼ中央に位置する標高531mの藻岩山。麓から中腹まではロープウェイか藻岩山観光自動車道を利用、中腹から山頂までは世界初の駆動方式を採用したミニケーブルカー「もーりすカー」に乗車する。札幌市民には気軽に登れる山として人気が高く、軽装で登れる5つの登山道（最短コース2.4km、最長コース4.5km）があり、夏場の週末には登山客で賑わいを見せる。
定山渓温泉,〒061-2302 北海道札幌市南区定山渓温泉,42.9700425,141.1664361,http://www.jyozankei.com/,札幌駅から２７ｋｍ、原生林におおわれた山合いの豊平川上流にあるのがこの温泉。デラックスなホテルや古風で純日本式な明治調の旅館・みやげ店などが立ち並び、大温泉地にふさわしい規模ながら、閑静な環境を保っており、家族的で健康的なムードの温泉街となっている。気温の低い春や秋・冬の季節には川面から湯煙が立ちのぼって温泉情緒をかもし出している。また、春には新緑、夏は涼しく、秋にはすばらしい紅葉が楽しめるほか、冬にはスケールの大きさと施設の良さで人気の高い定山渓高原札幌国際スキー場なども近く、歓楽温泉街として一年中楽しめる温泉である。
大通公園,〒060-0042 北海道札幌市中央区大通西１〜１２丁目,43.05990175,141.3475100757782,http://www.sapporo-park.or.jp/odori/,市街地の中心部を東西に貫く面積７８．９０１平方メートル・全長約１．５ｋｍの一大グリーンベルト。噴水・彫刻・花壇で美しく彩られ、春から秋には名物トウキビのワゴンが並ぶ。さっぽろ雪まつりやホワイトイルミネーションなどの様々な催しの会場でもある。
青い池,〒071-0235 北海道上川郡美瑛町白金,43.49349015,142.61409947894413,,「日本で最も美しい村」連合に名を連ねる美瑛町にある池。特殊な自然環境によって池の水面が青色に見える不思議な場所。幻想的に輝く青色（ビエイブルー）と立ち枯れた無数のカラマツが合わさり、驚くほど美しい風景を見せてくれる。春は緑がかったグリーンブルー、初夏は明るいライトブルーと、季節によって違った色を見れるのも特徴。紅葉を映し出す秋の水面や、池が凍結する冬シーズンなど、四季折々の見どころがたくさん。期間によっては池のライトアップを楽しめる。
阿寒湖,〒085-0467 北海道釧路市阿寒町阿寒湖温泉,43.455953199999996,144.09924305383902,http://www.lake-akan.com,北海道東部、釧路市「阿寒国立公園」にある湖。雄阿寒岳のふところ。湖上には大小の島々が浮かびマリモ伝説で有名。北海道東部を代表する観光地。特別天然記念物のマリモ(毬藻)が有名だが、ヒメマスなどが生息することでも有名。
十勝川温泉,〒080-0263 北海道河東郡音更町十勝川温泉,42.950583,143.298131,http://www.tokachigawa.net/,"十勝川温泉は、日本でも珍しい&quot;モールの湯&quot;が湧出しています。遥か太古の時代、ここ十勝川河畔は、葦などの植物が自生していました。それらの植物が長い時間をかけて堆積し、できあがった亜炭層を通って湧き出る温泉が、植物性の有機物を多く含む&quot;モールの湯&quot;なのです。
一般的な鉱物性温泉に比べて世界でも希少な泉質で、資源が限られている貴重な温泉資源です。数ある北海道内の温泉地に先駆け、平成16年に北海道遺産として選定されました。"
ノーザンホースパーク,〒059-1361 北海道苫小牧市美沢114-7　ノーザンホースパーク,42.7760993,141.73957007827528,,ノーザンホースパークは、北海道苫小牧市にある馬のテーマパークです。観光馬車や観光引馬といった馬とのふれあい体験をはじめ、日本初のポニーショー、サイクリングやミニスノーモービルといった各種アクティビティなど、北海道の自然を活かした多彩なコンテンツが大集合しています。生息している馬たちは約12種・80頭。引退した競走馬たちも揃っているため、競馬ファンからも人気を集めています。その他、馬の気持ちを学べる博物館、有名競走馬たちの記念品が展示されているホースギャラリーなどもおすすめです。
ファーム富田,〒071-0703 北海道空知郡中富良野町字中富良野基線北15号,43.4172981,142.4254765579896,http://www.farm-tomita.co.jp/,ラベンダーをはじめ、ポピー、コスモス、カスミ草などが７、８月に花畑に広がる。園内には休憩所の「ポプリの舎」、香水の調合を見学（要予約）できる「香水の舎」、「花人の舎」、「蒸留の舎」、「ポピーの舎」などがある。おみやげ品も売店に多数ある。
小樽運河,〒047-0007 北海道小樽市港町4番3号,43.2013525,141.0008939,https://www.city.otaru.lg.jp/docs/2020100900367,異国情緒溢れる港町小樽に流れる運河。北海道開拓の玄関口として発展した歴史があり、レトロな石造りの倉庫群や運河クルーズなど、当時の面影を残す建物・文化が多い。活気溢れる小樽境町通りには、ガラス工芸品の老舗「北一硝子」や、北海道スイーツの名店「ルタオ」の本店など、無数のショップが軒を連ねる。新鮮魚介を味わえる「小樽三角市場」も人気。運河沿いの散策路を照らすガス灯は夕暮れ時から点灯。小樽を訪れたら絶対に見ておきたいノスタルジックな風景が広がる。
摩周湖,〒088-3200 北海道川上郡弟子屈町,43.5789373,144.51704170062573,https://www.masyuko.or.jp/introduce/mashu/,"摩周ブルーに輝く神秘の湖
摩周湖は、アイヌ語で「カムイトー」。神の湖と呼ばれる、神秘の場所です。展望台に立つと、吸い込まれそうなほどの深い青色の湖水が広がり、雲の動きによって刻々とその表情を変えていきます。この青は「摩周ブルー」と呼ばれ、世界でも一級の透明度を誇る湖水に、空の青が映りこんで生まれる独特の色。風のない日はその青さがいっそう際立ちます。
湖の周囲は急峻な壁になっていて、湖面に下りることはできません。摩周湖周辺は、国立公園の特別保護地区。人々を寄せつけぬ美しい湖の神秘は、悠久の時を経て今なお多くの人を惹きつけてやみません。"
羊蹄山,北海道虻田郡真狩村,42.8269572,140.8067401,,北海道民から蝦夷富士として親しまれる日本百名山のひとつ。標高1898ｍの成層火山で、頂上には周囲約2kmにも及ぶすり鉢状の巨大な火山がある。夏の登山シーズンには、標高1700ｍ以上の場所に100種類以上の高山植物が花を咲かせる。倶知安・真狩・喜茂別・京極と4つの登山コースがあり、中でも倶知安コースの道中にある高山植物地帯は、国の特別天然記念物に指定されている。
層雲峡,〒078-1701 北海道上川郡上川町字層雲峡,43.727881,142.951303,,北海道中央部に位置する秘境の峡谷。最初にこの地を発見したアイヌ民族が「神々が遊ぶ庭」と言い伝えるほどの神秘的かつ厳しい大自然が広がる。24kmにも渡って続く断崖絶壁「銀河・流星の滝」や、巨大な岩壁が並ぶ絶景スポット「大函」など、見どころが盛りだくさん。自然アドベンチャーや渓流ラフティングなどのアウトドアレジャーも人気が高い。山麓の市街地には北海道で有数の規模を誇る「層雲峡温泉」があり、数多くの温泉旅館や飲食店が点在している。
円山公園,〒064-0959 北海道札幌市中央区宮ケ丘,35.0036218,135.7814743897062,http://www.sapporo-park.or.jp/maruyama/,札幌市にある公園。約70haの広大な敷地内には、天然記念物に指定されている円山（まるやま）原始林が残され、自然が豊か。桜の名所として知られており、春にはエゾヤマザクラ、ソメイヨシノが咲き誇る。秋の紅葉も見事で、あたり一面、赤や黄色の絨毯で覆われる。北海道、札幌開拓に所縁のある銅像や石碑も見受けられる。野球場や陸上競技場といったスポーツ施設も整備され、市民の憩いの場として多くの人で賑わう。北海道内で初の動物園、円山動物園も敷地内にある。
札幌ステラプレイス,〒060-0005 北海道札幌市中央区北5条西2丁目,43.0680462,141.350991,http://www.stellarplace.net,JR札幌駅の南口に直結した複合商業施設。ファッション・アウトドア・キャラクターグッズ・生活雑貨・コスメなど、個性豊かな200店舗以上のお店が軒を連ねる。館内にはおしゃれなカフェや映画館、屋上広場などがあり、飽きずに1日中買い物を楽しめるスポットが充実している。寿司・海鮮丼・炭火焼き豚丼・スープカレーなど、北海道のご当時グルメを味わえるレストラン街は人気が高い。屋内外に設置されたユニークなアート作品も見どころのひとつだ。
北海道庁旧本庁舎,〒060-8588 北海道札幌市中央区北３条西６丁目,43.06396555,141.34802416254777,http://www.pref.hokkaido.lg.jp/,1888年に建設された赤レンガの旧本庁舎は、国の重要文化財で北海道を代表する歴史的建造物。北海道開拓が進む明治の世で、農業や建築、土木といった先進技術を学ぶために世界へと飛び立った技術者たちの技術が集結している。設計は、アメリカ・レンセラー工科大学で学んだ北海道庁技師の平井晴二郎氏。レンガは札幌近郊で焼かれたものを使用し、フランス積みを採用。現在に至るまで頑丈で美しい姿を魅せているが、老朽化は免れず、現在はリニューアル工事を実施中。
五稜郭タワー,〒040-0001 北海道函館市五稜郭町43-9,41.7945919,140.75395865506715,http://www.goryokaku-tower.co.jp/,北海道函館市にある五稜郭（ごりょうかく）に隣接する展望塔。地上から90mの高さにある展望台からは、星形の城郭が特徴的な五稜郭はもちろん、函館山や津軽海峡、横津連峰の山並みを一望できる。タワー内には、五稜郭の歴史を学べる展示スペース「五稜郭歴史回廊」やオリジナルグッズが揃う売店、カフェスタンドなどが点在。展望台の形状と塔体の断面は、五稜郭にあやかった星形になっており、隠れた見どころのひとつとして知られる。
宗谷岬,〒098-6752 北海道稚内市宗谷岬,45.5228863,141.9366,,晴れた日には海の向こうの樺太島を一望できる、日本最北端の地として知られる岬。周辺は宗谷岬公園として整備されており、岬の突端に建てられた「日本最北端の地の碑」には、全国から多くの観光客が集まる。夕刻には、水平線に沈む夕日とライトアップされ浮かび上がる碑との幻想的なコラボレーションも見もの。岬の南側に広がる「宗谷丘陵」は、360度の自然絶景を楽しめる、なだらな丘陵地帯で大人気のスポット。
中島公園,〒064-0931 北海道札幌市中央区中島公園,43.043928199999996,141.3541976643338,http://www.sapporo-park.or.jp/nakajima/,藻岩山を背景に市のほぼ中心部に位置しながらも、水と緑が豊かな憩いの場として親しまれている公園。　「日本の都市公園１００選」にも認定されている。　「菖蒲池」をはじめ、国の重要文化財「豊平館」や「八窓庵」などがある。
旭岳,北海道上川郡東川町旭岳温泉,43.663586,142.8541052,http://town.higashikawa.hokkaido.jp/,大雪山連邦の主峰にして北海道の最高峰。標高2291mを誇る山道には多種多様な高山植物が生息しており、7月下旬には色とりどりに咲き乱れる花々を見られる。登山シーズンは6月下旬から10月初旬頃まで。「大雪山旭岳ロープウェイ」を利用すれば手軽にトレッキングを楽しめるとあって、登山初心者にも人気が高いスポット。9月中旬には日本で一番早く紅葉シーズンを迎え、大雪山国立公園中が秋色に染まる圧巻の姿を見られる。
屈斜路湖,〒088-3331 北海道川上郡弟子屈町字美留和,43.61656955,144.31053063330174,https://www.masyuko.or.jp/introduce/kussharoko/,"自然豊かな国内最大のカルデラ湖
屈斜路の語源は、アイヌ語で湖や沼の出口を意味する「クッチャロ（のど元）」に由来します。世界でも有数の大きさを誇る屈斜路カルデラに位置する、国内最大のカルデラ湖です。
火山活動から生まれた湖だけあって、湖畔には多くの温泉が湧出。野趣あふれる露天風呂が点在するほか、蒸気の噴出する珍しい場所、温泉熱を活用した農業用ハウスや大型ホテルなどもあります。
屈斜路湖の魅力は何といっても圧巻のスケールと親しみやすさ。北海道らしい雄大な風景が広がりながらも、湖畔を訪れる人々を優しく内包する大らかさが多くの人を惹きつけます。また、巨大な湖にも関わらず水がとても美しいことも、特徴のひとつ。水源の8割が湧き水であるとも言われています。美しい水を求めて、夏にはキャンプやカヌー、ヨットなどのウォータースポーツを楽しむ人々が、冬にはシベリアからの旅人であるたくさんの白鳥たちが、この湖に集います。"
二条市場,〒060-0052 北海道札幌市中央区南３条東１〜２,43.0582548,141.35846720113446,http://www.welcome.city.sapporo.jp/find/shops/nijo_fish_market/,明治初期に、石狩浜の漁師が新鮮な魚を売り始めたのがきっかけで開設したといわれる二条市場。かつては創成川の対岸、西1丁目から東2丁目にかけて、ずらりと魚の市場が並び、次第にそば屋や居酒屋、青果店などが集まり現在の基礎となった。一世紀以上の時間が流れた今も、市民の台所として健在。街の中心部に位置する立地の良さも手伝い、カニやホタテなど北海道土産を求める観光客でにぎわう。また、市場内に個性豊かな飲食店が多数入居する「のれん横丁」などの雑居ビルがあり、今や円山、狸小路にならぶ人気のグルメスポットになっている。
大内宿,〒969-5207 福島県南会津郡下郷町大字大内,37.3334588,139.86088762079373,http://ouchi-juku.com/,会津若松と日光今市を結ぶ下野街道の宿場町として整備され、今も約500メートルの往還に江戸の風情が残っています。寄棟造りの建物が道路と直角に整然と並べられていること特徴。昭和56年4月、国の重要伝統的建造物群保存地区に選定されました。
弘前城（本丸・北の郭）,〒036-8356 青森県弘前市下白銀町1-1,40.606075,140.466019,http://www.hirosakipark.or.jp/,"弘前藩祖為信（１５５０〜１６０７年）が築城を計画し、二代藩主信枚が慶長１５年（１６１０年）縄張りをし、翌１６年（１６１１年）にほぼ完成した海抜５０ｍの平山城である。明治維新まで津軽家の居城であった。１８７１年廃城時の原形をとどめている貴重な城。現在は城跡に弘前公園ができ、一般公開されている。現在、６つの郭の全域が国指定史跡に、また、天守閣、二の丸の東門・南門・辰巳槽・未申櫓・丑寅櫓、三の丸の追手門・東門、北の郭の北門（亀甲門）が国の重要文化財に指定されている。
天守は石垣修理のため、平成27年8月から曳屋されており、元の位置には令和3年ころに戻る予定である。"
田沢湖,秋田県仙北市西木町・田沢湖,39.72483705,140.6632728430334,http://www.city.semboku.akita.jp/,田沢湖と西木町にまたがる。秋田県の中東部にある湖。最大深度は423.4m。水深日本一を誇るカルデラ湖。深さがあるため冬でも凍らない。美しい辰子という娘が、人から龍に姿を変えた「辰子伝説」が残る神秘的な湖。湖畔には、金色に輝く「辰子像」が立っており、たくさんの観光客が記念写真を撮っている。
蔵王温泉,〒990-2301 山形県山形市蔵王温泉,38.167662,140.396972,http://www.zao-spa.or.jp/,"奥羽三高湯の1つ。泉質：酸性・含硫黄-アルミニウム-硫酸塩・塩化物温泉（酸性泉）。特に皮膚に効くとされ、「子どもが丈夫に育つ湯」とか、「美肌の湯」とも言われ地元にも親しまれている。

蔵王温泉街には、上湯・下湯・川原湯の3箇所の共同浴場（6時〜22時、無休）がある。また、温泉街の一番奥に造られている大露天風呂は、4段からなる階段式で、すべてを合わせると100畳もの広さになる。上流の2段が女性用、下流の2段が男性用。合計で200名が同時に入浴できる。（11月下旬〜4月中旬頃までの冬期間は休業。）"
羽黒山,〒997-0211 山形県鶴岡市羽黒町手向,38.1122948,138.4065247,http://www.tsuruokakanko.com/haguro/midokoro/haguro.html,出羽三山は、月山、羽黒山、湯殿山の総称であり、古くから山岳修験の山として知られている。開山は約1、400年前、第32代崇峻天皇の皇子である蜂子皇子が三本足の霊烏に導かれ、羽黒山に登拝し、羽黒権現を獲得、山頂に祠を創建したのが始まりとされている。皇子はさらに月山権現と湯殿山権現を感得し、三山の開祖となった。以後、羽黒派古修験道として全国に広がった。
仙台うみの杜水族館,〒983-0013 宮城県仙台市宮城野区中野4-6,38.271056200000004,140.98044901852825,,仙台うみの杜水族館は、「いのちきらめく、うみの杜。」をキャッチコピーに、300種5万点の生物を展示している水族館です。施設内には大小合わせて約100基の展示水槽があり、三陸の海をはじめ日本や世界の海を表現。三陸の魚たちが悠々と泳ぐ大水槽や、東北最大級のイルカ・アシカのパフォーマンス、360°大パノラマプロジェクションマッピングなど、多彩な楽しみが用意されています。また、バンドウイルカに触れられる「イルカタッチ＆フォト」、ペンギンたちにごはんをあげる「ペンギンフィーディングタイム」といった各種ふれあい体験、カキ殻のワークショップといった体験型プログラムも豊富です。
スパリゾートハワイアンズ,〒972-8326 福島県いわき市常磐藤原町蕨平50,36.9931068,140.81571908328885,,"スパリゾートハワイアンズは、映画「フラガール」のモデルになった大型レジャー施設です。施設内には、4つのホテルや南国ムードあふれる全天候型のプール、3階から5階まで吹き抜けになったおしゃれな屋内スパ、12種24浴槽のバラエティに富んだお風呂が満喫できる男女別の大浴場、江戸時代の街並と湯屋をモチーフに江戸情緒を再現した温泉施設、さらにハワイの踊りやパフォーマンスが見られるエンターテインメントショーコーナーなどがあります。スパリゾートハワイアンズが人気なのは、人々に感動を与える歴史があるからです。スパリゾートハワイアンズを訪れる際は、1度映画「フラガール」を鑑賞してから足を運ぶとより一層楽しめます。スパリゾートハワイアンズへは湯本駅から無料送迎シャトルバスが運行しているほか、東京・大阪・京都・新潟などからバスも出ており、難しい移動をすることなくアクセスできます。
アソビューでは、スパリゾートハワイアンズのお得なクーポンを販売中。通常大人3,500円の入場料が最大20%割引で2,800円、入場料+スライダー乗り放題プランは大人5,950円のところ最大27%割引で4,450円となります。また、スパリゾートハワイアンズの割引チケットはスマホでの事前購入となるので、入り口でスマホを見せるだけとスムーズに入場できます。スパリゾートハワイアンズのお得なクーポンを使い、ハワイの雰囲気を感じながら思いっきり遊びましょう！"
鶴ヶ城,〒965-0873 福島県会津若松市追手町1-1,37.48773525,139.92976605913537,,福島県会津若松市に位置する「鶴ヶ城」は、約630年前に作られた地元のシンボルです。正式には「若松城」という名を持ち、1868年に起こった戊辰戦争の際には、新政府軍の猛攻に耐えた「難攻不落の名城」としても有名。赤瓦の5層の天守閣がとても美しい、日本百名城の一つです。ぜひ歴史を体感しにいらしてください。
秋保温泉,〒982-0241 宮城県仙台市太白区秋保町湯元,38.2699764,140.7614193,http://akiusato.jp/,第29代欽明天皇（531年〜539年）が小瘡（皮膚病）を患った時、秋保から運ばせた湯で湯浴みしたところそれが完治したと云われ、その効能を賞賛し「御湯」の称号をさずかったとされる。以後、信濃、犬養の湯とともに「日本三御湯」と称され、日本中から湯治客を集めた。伊達政宗公も度々おとずれ疲れを癒した記録も残っており、雄大な自然と湯を兼ね備えた秋保温泉は、古くから保養の地として人々に親しまれてきた歴史を持つ。
鶴岡市立加茂水族館,〒997-1206 山形県鶴岡市今泉字大久保657-1,38.76164665,139.72469842674036,http://kamo-kurage.jp/,"鶴岡市立加茂水族館では、魅力的な水生生物たちとの出会いが待っています。その中でも最大の魅力は、なんといっても展示種類数が世界一のクラゲたちでしょう。鮮やかな色と形を持つ、およそ60種類以上のクラゲが優雅に水中を舞いながら漂っています。水槽を眺めているだけで、心が落ち着き、日々の喧騒を忘れることができます。

また館内では、飼育職員による解説プログラムや、クラゲに関する学習・体験プログラムなども実施しています。これらのプログラムを通じて、生物の生態や水族館の仕事について理解を深めることができます。加えて、家族で楽しめる各種イベントも開催しており、大人から子供までが楽しめる空間になっています。

一方、クラゲラーメンやクラゲアイスといった、ユニークなクラゲグルメも話題で、観光の楽しみの一つともなっています。鮮やかなクラゲたちを見ながら、ひと味違う料理を味わう時間も、きっと特別な体験になることでしょう。

加茂水族館オリジナルのクラゲグッズや、地元山形の特産品などを取り扱うショップもあり、訪れた記念やお土産品として購入することもできます。"
奥入瀬渓流,〒034-0301 青森県十和田市大字奥瀬,40.5746171,140.9791052,,十和田八幡平国立公園の中にあり、十和田湖から流出する唯一の河川で、十和田湖の子ノロから焼山までの約14kmの流れが、奥入瀬渓流とされ、千変万化の渓流美を構成し、四季を通しての景勝地である。渓流には遊歩道が整備されており、渓流沿いにはいくつもの滝が点在する。十和田湖観光には欠かせない散策ポイント。渓流沿いの遊歩道では4時間半くらいのトレッキングが楽しめる。豊かな樹木や大小の滝、巨大な岩や切り立った崖などが景観に彩りを加える。新緑や紅葉の時期は、特に美しい景観をみせる。1928年に天然記念物に指定されている。
環境水族館アクアマリンふくしま,〒971-8101 福島県いわき市小名浜字辰巳町50,36.94223,140.90126,,アクアマリンふくしまは、東北最大の楽しく学べる体験型水族館です。ガラスに覆われた屋根からは太陽の光が降り注ぎ、美しく輝く魚たちを見ることができます。また、本物の植物を展示し、生き物が生息する環境を再現しているのも特徴です。
休暇村乳頭温泉郷,〒014-1201 秋田県仙北市生保内字駒ヶ岳2-1,39.8007643,140.79501786897183,,乳頭山麓に点在する乳頭温泉郷の宿のひとつである「休暇村 乳頭温泉郷」。四季折々のブナの森に囲まれながら、まったり温泉をお楽しみいただけます。ご宿泊、日帰り、ランチ利用など様々なおもてなしをご用意。ブナの森を散策できるアクティビティ体験もありますよ。新しい発見と出会いを見つけに、ぜひいらしてください。
恐山,〒035-0021 青森県むつ市田名部宇曽利山,41.3169493,141.0876763,,貞観4年（862年）に慈覚大師によって開山され、天台宗の修験道場として栄えたが、いったん廃寺となり、14世紀に曹洞宗円通寺によって再興された。風車がカラカラと回り、荒々しい岩場の合間から硫黄の臭いが立ちこめる様子は、地獄に、宇曽利山湖をとりまく白浜は極楽に見立てられている。夏の恐山大祭は多くの参詣者でにぎわう。
猪苗代湖,福島県耶麻郡猪苗代町猪苗代湖地区,37.47330215,140.0988943933994,,"全国で4番目に広い猪苗代湖。
郡山市・猪苗代町・会津若松市にまたがる。
全国有数のきれいな水質と透明度で別名「天鏡湖」と呼ばれている。
湖水浴やキャンプ、バーベキュー、ウォータースポーツ、湖上遊覧などが楽しめる。"
龍泉洞,〒027-0501 岩手県下閉伊郡岩泉町岩泉字神成1-1,42.7800528,129.3259895,http://www.iwate-ryusendo.jp,日本三大鍾乳洞の一つで、洞内に住むコウモリとともに国指定天然記念物を受けている。奥から湧き出る清水が数カ所に渡って深い地底湖を形成しており、第三地底湖は水深98m。なお、未公開の第四地底湖は水深120m（日本一）。入口から直線的の伸びる神秘的な洞窟空間や、透明度の高い水を豊富にたたえ「ドラゴンブルー」の輝きを持つ地底湖が見どころになっています。
秋田市大森山動物園〜あきぎんオモリンの森〜,〒010-1654 秋田県秋田市浜田字潟端154,39.671967,140.074493,http://www.city.akita.lg.jp/zoo/index.html,"""昭和44年、日本海に面し秋田市が一望できる大森山（標高約123m）に、公園面積約70haの「子どもの国」が計画されました。市中心部から南西約8km。その北西部一角の約8.8haが動物園として造成されました。そして昭和48年9月1日、「秋田市大森山動物園」として開園しました。

園内はさまざまな種類の樹木や草花に包まれ、中心部には、湧水性の「塩曳潟（しおひきがた）」（2.01ha）を有する特徴的な地形となっています。 飼育動物については、約100種600点の動物を飼育展示しております。その中には、市制100周年記念事業として平成3年度（1991）に導入されたゾウ、キリンなども含まれております。

当動物園は、年間約27万人の人々が訪れ、子どもからお年寄りまで県内外を問わず親しまれております。"""
あぶくま洞,〒963-3601 福島県田村市滝根町菅谷字東釜山1,37.3447694,140.6728989,,"あぶくま洞は、福島県田村市にある全長600mの鍾乳洞です。洞内にはおよそ8,000万年という悠久の時が創り出した造形美が広がり、東洋一と言われる多彩な鍾乳石をご堪能いただけます。鍾乳石はそれぞれ幻想的にライトアップされており、日本の鍾乳洞では初となる舞台演出用の調光システムを取り入れた「月の世界」をはじめ、クリスタルカーテンやリムストーンなど、見どころ盛りだくさんです。なお、コースは600mを約40分かけて歩く「一般コース」と、120mを約10分で進む「探検コース」の2種類から選べます。"
小岩井農場,〒020-0507 岩手県岩手郡雫石町丸谷地36-1,39.75278595,141.0190673542956,http://www.koiwai.co.jp/,明治24年創業のわが国唯一の民間総合農場であり日本最大の民間総合農場。約900万坪の広大な敷地面積を誇る。小岩井は、地名ではなく、共同創始者3名（小野／岩崎／井上）の姓の頭文字をとり「小岩井」農場と名づけられた。メイン施設のまきば園では、牧羊犬や羊たちによるひつじショー、バター作りやアトラクションやアスレチック遊具でも遊べる。自然とふれあう体験メニューがたくさん。農場自慢のチーズケーキや乳製品も味わえる。レストランでは、とれたての乳製品を使って作った美味しさ絶品のソフトクリームや、卵料理が堪能できる。
五色沼湖沼群,〒966-0400 福島県耶麻郡北塩原村大字桧原字湯平山,37.691696,140.084763,http://www.urabandai-inf.com,福島県磐梯朝日国立公園内にある大小30ほどの湖沼の総称。正確には「五色沼湖沼群」といい、1本道のトレッキングコース「自然探勝路」には、毘沙門沼（びしゃもんぬま）・赤沼・るり沼・青沼など色彩豊かな沼が点在。 沼によってコバルトブルーやエメラルドグリーンなど、異なる色を見せることから神秘の沼として観光客に人気だ。コースは片道約4km、約80分ほど。コース入り口付近の裏磐梯（うらばんだい）ビジターセンターなどで情報収集できる。
秋保大滝,〒982-0244 宮城県仙台市太白区秋保町馬場,38.2748826,140.6028212,https://www.sentabi.jp/guidebook/attractions/view/116/,緑萌える初夏、さらに錦繍の秋には一層見事な眺めとなる秋保大滝は、幅６ｍ落差５５ｍの文字通りの大滝で、那智・華厳と並び日本三名瀑に数えられる。川沿いの遊歩道をたどり、ほほに涼風を受けながら間近に豪快な眺めを楽しむことができる。
八甲田山,〒030-0111 青森県青森市大字荒川字寒水沢,40.6588874,140.8773381,http://www.hakkoda-ropeway.jp/,"青森市の南側にそびえる八甲田山。「八甲田山」といっても、ひとつの山をさすのではない。大岳（標高1,584.4m）を主峰として高田大岳、井戸岳、赤倉岳、前嶽、田茂萢岳、小岳、硫黄岳、石倉岳、雛岳の10の山々を北八甲田といい、 櫛ケ峰をはじめ6峰の山々を南八甲田という。那須火山帯に属す。6月は新緑、10月は紅葉、11月下旬から5月中旬までスキーができる。秋には全山紅葉し、たくさんの観光客が見物に訪れる。現在の火山活動は穏やか。麓には、小さな温泉が点在している。日本百名山の一つ。"
鳥海山,〒999-8521 山形県飽海郡遊佐町吹浦,39.0992494,140.0503497,https://www.google.com/maps/place/%E9%B3%A5%E6%B5%B7%E5%B1%B1/@39.0988573140.026560914z/data=!3m1!4b1!4m5!3m4!1s0x5f8eed559b6f460d:0x8e67ba4656d9ec4d!8m2!3d39.0988592!4d140.0440705,山形県と秋田県の県境にある、標高2236mを誇る高山。美しい三角頭のシルエットから、出羽富士または秋田富士の名で親しまれている。朝日に照らされた鳥海山のシルエットが、日本海上に映る「影鳥海」は名風景だ。夏には高山植物が咲き誇り、一面の花園が目を楽しませてくれる。一方で冬にしか見られない、外輪山の内側の岩肌が氷に覆われる「岩氷」も芸術的。登山道は、山形・秋田両県から数多く延びており、山頂までは5時間ほど着く。
蔵王温泉スキー場,山形県山形市蔵王温泉,38.1613172,140.40773543989184,http://www.zao-spa.or.jp/,地蔵岳、三宝荒神山の広大な山麓に開かれた14のゲレンデが、リフト32基、ロープウェイ3基、スカイケーブル1基によって機能的に結び付けられ、素晴らしい樹氷の間を滑走できる樹氷原コースをはじめ、FIS、SAJの回転、大回転の公認コースなど特徴のあるコースを楽しめます。また、硫黄のにおいがたちこめる蔵王温泉街の独特の風情は一味違ったスキー旅行を体験させてくれます。
十和田湖,〒018-5511 秋田県鹿角郡小坂町十和田湖,40.45865515,140.8711305316521,http://www2.ocn.ne.jp/~towadako/,典型的な二重式カルデラ湖で新緑、紅葉は見事。特別名勝地に指定され、ヒメマスが名産。遊覧船による湖上遊覧のほか、レンタサイクルでのサイクリングも楽しい。また、鉛山〜大川岱〜滝ノ沢には湖岸遊歩道があり、散策には好適。
浄土ヶ浜,〒027-0001 岩手県宮古市日立浜町,39.652450349999995,141.97873662387545,http://www.city.miyako.iwate.jp/,陸中海岸を代表する景勝地。白い流紋岩でできた美しい海岸。磯遊び、海水浴客で賑わう。日本の快水浴場百選の『海の部特選』に選定された。　浄土ヶ浜の地名は天保年間（1681〜1683）に宮古山常安寺七世の霊鏡和尚が「さながら極楽浄土のごとし」と感嘆したことから名づけられました。
中尊寺金色堂,〒029-4102 岩手県西磐井郡平泉町平泉字衣関202,39.002007,141.104477,http://www.chusonji.or.jp/,世界文化遺産、国宝第１号。方三間の阿弥陀堂で内外を黒漆で塗り、その上に金箔で押したため、金色堂とよばれている。内部の長押、柱、須弥壇には金蒔絵、極彩色が施され、要所は宝相華文を透し彫りにした金具で装飾されている。
弘前公園,〒036-8356 青森県弘前市下白銀町1,40.6079516,140.46371660820088,http://www.city.hirosaki.aomori.jp/gaiyou/shisetsu/2014-1206-1528-48.html,"弘前公園は弘前市の中心部に位置し、文化と自然が融合した美しいスポットとして親しまれています。

公園には弘前藩主津軽家の居城であった弘前城があり、古き良き日本の姿を今に伝えています。三層の天守は、江戸時代に築かれたもので、そのままの姿を留める全国でも数少ない建築物として貴重な存在となっています。園内では四季折々の風情を楽しむことができ、春には2,600本もの桜が咲き誇り、花見が楽しめる場所として人気を集めます。夏には新緑が広がり、秋には紅葉が公園全体を彩ります。冬には雪に覆われた公園が幻想的な雪景色を描き出します。

弘前公園では季節ごとに様々なイベントも開催。春には弘前さくらまつり、秋には紅葉まつり、冬には雪燈籠まつりが行われ、それぞれの季節を盛り上げます。美しい自然とともに地元の文化も感じることができます。

公園内には見どころも多数点在していて、先述した弘前城の城門や櫓、濠といった歴史的な遺構を訪れたり、様々な動植物と触れ合ったりすることが可能です。

その美しさ、歴史、文化は一見の価値ありです。一度訪れれば、きっとその魅力に引き込まれることでしょう。"
国営ひたち海浜公園,〒312-0012 茨城県ひたちなか市馬渡字大沼605-4,36.40249825,140.5943062843619,https://hitachikaihin.jp/,"茨城県ひたちなか市の国営ひたち海浜公園は、四季折々の色とりどりの花々が観賞でき、自然豊かな環境が魅力です。春には約530万本もの青いネモフィラが一面を覆い、まるで青い絨毯を敷き詰めたかのような美しい風景が広がります。その他にも、スイセンやチューリップ、初夏にはポピーやバラ、夏はジニアやヒマワリ、秋にはコキアやコスモス、冬はアイスチューリップなど、四季を通じて美しい花々が楽しめます。

また、遊園地「プレジャーガーデン」はさまざまなアトラクションが揃い、小さなお子様から大人まで満喫することができます。食事やスポーツ、ピクニックなど、訪れる皆さんの好みに合わせて様々な過ごし方ができます。広大な園内は自然に満ちており、心地よい潮風を感じながらの散策は一段と贅沢な時間を楽しむことができます。

めまぐるしく変わる季節の彩りと、ファミリーや友人との楽しい時間を過ごすことができる公園です。是非一度、訪れてみてください。"
東京スカイツリー,〒131-0045 東京都墨田区押上1-1-2 4階チケットカウンター,35.71005425,139.81071409992649,,
恩賜上野動物園,〒110-8711 東京都台東区上野公園9−83,35.71534255,139.7688959744384,https://www.tokyo-zoo.net/zoo/ueno,"上野動物園は、東京の都心部にありながら自然とその景観を維持している都市型の動物園で、約300種3,000点の動物を飼育しています。"
鴨川シーワールド,〒296-0041 千葉県鴨川市東町1464番地18,35.116053,140.120536,,
横浜・八景島シーパラダイス,〒236-0006 神奈川県横浜市金沢区八景島,35.33650265,139.64578345855676,,横浜・八景島シーパラダイスは、水族館・アトラクション・レストラン・ショップ・ホテルなどが併設し、「海」「島」「生きもの」というほかにはない特性を生かした「複合型レジャー施設」です。日本最大級の水族館には、テーマの異なる4つの水族館があり、大人気のシロイルカなど700種12万点の生きものたちがくらしています。遊園地「プレジャーランド」には、日本で唯一となる海の上を走行する「サーフコースター リヴァイアサン」や木の温もりとイルミネーションで幻想的な世界へいざなう「メリーゴーラウンド」などがあり、子どもから大人までお楽しみいただけます。さまざまな体験が最高の思い出に変わる、横浜・八景島シーパラダイスへは、横浜駅やみなとみらい地区からバスが運行しており、それ1本で簡単にアクセスできます。 アソビュー！では、横浜・八景島シーパラダイスのお得なチケットを販売中。横浜・八景島シーパラダイスのチケットはスマホでの事前購入となるので、チケット売場でスマホを見せるだけでスムーズに当日券への引換ができます。アソビュー！でお得なチケットを購入し、水族館や遊園地を1日遊び尽くそう！
江の島,〒251-0036 神奈川県藤沢市江の島,33.009397,129.3522448691796,http://www.fujisawa-kanko.jp/spot/spot01.hyml,古くから参詣・遊山の地として賑わってきた江の島は、現在では年間を通じて季節感溢れるイベントや伝統行事などを数多く行っており、「東洋のマイアミビーチ」とも呼ばれる美しい海岸線とともに国内でも有数の人気観光エリアです。
草津温泉,〒377-1711 群馬県吾妻郡草津町草津,36.6208447,138.59639275395813,https://www.kusatsu-onsen.ne.jp/,"恋の病以外なら、どんな病気でも治るといわれる草津温泉。大小100余カ所もの自然湧出の温泉がある。もうもうと湯煙をあげる湯畑は、毎分32,300リットルの熱湯が一年中湧き出ており、この熱泉を幾本もの長い木樋に流し、温度を下げて湯の花を採取してから各旅館へ送湯する。
2013年には目の前に「御座之湯」も完成し、草津温泉のシンボルとして益々発展している。他にも、お湯が川となって流れている西の河原と露天風呂。湯もみ（高温の湯を長い板でもみ、温度を下げる作業）と湯もみ踊りが実演される熱の湯など、湯の町ならではの見どころがいっぱい。"
東武動物公園,〒345-0831 埼玉県南埼玉郡宮代町大字須賀110番地,36.0248138,139.7267541,,"渋谷から電車で約80分でアクセスできる「東武動物公園」。全120種類1,200頭もの動物がいる動物園の他、多彩なアトラクションが楽しめる遊園地も併設！夏季には人気のプールエリアも開放されるので、1日中たっぷり遊べますよ♪各方面からもアクセスしやすくなっておりますので、ぜひ遊びにいらしてください。"
那須ハイランドパーク,〒325-0398 栃木県那須郡那須町高久乙3375,37.0654034,139.9625368,,"那須ハイランドパークは、栃木県那須町にある北関東最大級の遊園地です。那須ハイの魅力はなんと いってもそのアトラクションの多彩さ。
那須ハイランドパーク名物の「8大コースター」と呼ばれる8種類のコースター系アトラクションや新OPENした「VRシアター」や「XD ダークライド」など屋内施設も充実！約40種類のアトラクションのうち、半数以上が3際未満のお子様も利用可能なので、ご家族みんなでお楽しみいただけます。さらには、ワンちゃんと一緒に乗車可能なアトラクションなど、多彩な楽しみ方ができます。「全部楽しみ尽くすぞ！」と意気込んだら1日乗り放題パスはマ ストアイテム。前売りチケットでは、入園料＋1日乗り放題パスを定価より最大400円引きというお得な 価格で購入することができます。"
新宿御苑,〒160-0014 東京都新宿区内藤町11,35.68507155,139.70954659587008,,約1万本の木々が茂る新宿御苑は、広さ58.3ヘクタール、周囲3.5kmに及ぶ広大な国民庭園です。風景式庭園、整形式庭園、日本庭園が巧みに組み合わせられており、日本における近代西洋庭園の名園と言われています。旧洋館御休所や旧御凉亭など歴史的建造物も多く、自然散策とともに歴史遺産をたずねることができます。
明治神宮,〒151-8557 東京都渋谷区代々木神園町1−1,35.6748417,139.69962659091632,https://www.meijijingu.or.jp,原宿駅から徒歩5分の場所にある神社。初詣の参拝者数が毎年日本一を記録する都心でも有数の参拝スポットだ。70万平方メートルにも及ぶ人工の森「鎮守の杜」があり、都会のオアシスとして親しまれている。境内には、強運スポットとして名高い湧き水の井戸「清正井」や、2本の木が寄り添うご神木「夫婦楠」など、数多くのパワースポットが点在。美しい花菖蒲を見られる「明治神宮御苑」や、深い木々に囲まれた癒しのカフェ「杜のテラス」など、参拝後に楽しめる場所も多い。
東京タワー,〒105-0011 東京都港区芝公園4丁目2-8,35.6584491,139.74553595504963,,東京タワーには、150mのメインデッキ、250mのトップデッキの2つの展望台があり、東京の中心から世界有数のメトロポリスの息吹を感じることが出来ます。塔脚下のビル「フットタウン」には、オフィシャルショップやフードコート、タワーギャラリー等、1日過ごせる施設が充実。 赤羽橋駅、神谷町駅、御成門駅、芝公園駅など各駅から徒歩10分圏内にあり、好アクセスです。
那須どうぶつ王国,〒329-3223 栃木県那須郡那須町大字大島1042番地1,37.1290079,140.0371661,,"那須どうぶつ王国は、動物たちと身近にふれあえる！大人気な動物園です。
【①雨の日でも安心な「王国タウン」】【②那須の大自然に広がる「王国ファーム」】の2つに分かれています。【①王国タウン】には、カピバラと触れ合える「カピバラの森」や熱帯の湿地を体感できる「ウェットランド」 この春、さらに新施設もオープン！？
【②王国ファーム】には、世界の様々な猛禽類が見れる「猛禽の森」、カンガルーを間近で観察できる「カンガルーファーム」、見ているだけで癒されるアルパカ がいる「アルパカの丘」などがあります。また那須どうぶつ王国では、鳥たちが頭上スレス レを飛行する「バードパフォーマンスショー」も人気。普通の動物 園では経験できないような体験をしてみましょう！"
マザー牧場,〒299-1601 千葉県富津市田倉940-3,35.24592135,139.93408315205562,,
よみうりランド 遊園地,〒206-0812 東京都稲城市矢野口4015-1 よみうりランド遊園地,35.630913,139.517731,,よみうりランド 遊園地は、多摩丘陵南部にある子供から大人まで楽しめるレジャーランドです。最高時速110km・最大高低差78mの「バンデット」をはじめ、全43種のアトラクションが大集合した「遊園地エリア」、全15機種のアトラクションでモノづくりの楽しさが体感できる「グッジョバ!!」、5つのプールと3種のスライダーを有する「プールWAI」など、1日遊べる魅力的なエリアが勢揃い。特にグッジョバでは、世界に一つだけのオリジナル「日清焼そばU.F.O.」作りや、効率的な車の作り方を学ぶワークショップなど、新スタイルの遊園地エンターテイメントも満喫できます。その他、イルミネーションや季節ごとのイベントも見どころです。アソビューでは、よみうりランド 遊園地の割引クーポンを販売中。プール付ワンデーパスが最大400円割引になるお得な内容です。また、割引クーポンはスマホでの事前購入となるので、入口でスマホを見せるだけと入場もスムーズ。よみうりランド 遊園地の割引クーポンを使って、お得にアトラクションを満喫してみてはいかがでしょうか。
アクアワールド茨城県大洗水族館,〒311-1301 茨城県東茨城郡大洗町磯浜町8252-3,36.3333185,140.5938710490426,,アクアワールド茨城県大洗水族館は、日本一のサメ飼育種類数を誇る水族館です。体長3ｍを超えるシロワニなど現在54種のサメを飼育しています。当館はマンボウの複数飼育にも取り組んでおり、国内最大級の専用水槽で沢山のマンボウがのんびりと泳ぐ姿は必見です。上野駅から電車で約1時間半と都内からも好アクセス。是非お越しください。
西武園ゆうえんち,〒359-1145 埼玉県所沢市山口2964,35.768854250000004,139.4427295222854,,一歩足を踏み入れるとそこは活気・元気・熱気がほとばしる1960年代の懐かしいあの頃の世界！ 商店街のいたる所で巻き起こる、予想もつかない圧巻のライブ・パフォーマンスがゲスト自身をも巻き込み没入させます。 商店街から見上げる丘にそびえ立つ映画館には、日本を代表するクリエイティブの英知を結集した大型ライド・アトラクション「ウルトラマン・ザ・ライド 世紀の大決闘」と「ゴジラ・ザ・ライド 大怪獣頂上決戦」が二本立て上映中。 活気あふれる商店街を抜けた先には、心の底から懐かしさに没入できる遊園地のアトラクション達が勢ぞろい！
サンリオピューロランド,〒206-8588 東京都多摩市落合1-31,35.62456145,139.4294452913163,,「サンリオピューロランド」は、東京都多摩市にある屋内型のテーマパークです。メルヘンな雰囲気のパーク内で、「ハローキティ」や「ポムポムプリン」などのサンリオキャラクターがお出迎えします。ポップでかわいいキャラクターたちのショーやアトラクション、キャラクターたちをモチーフにしたフォトジェニックなフード・ドリンクも勢ぞろい！
新江ノ島水族館,〒251-0035 神奈川県藤沢市片瀬海岸2-19-1,35.31009935,139.47942205909544,,"新江ノ島水族館は、目の前に相模湾と江の島を望む絶好ロケーションの水族館です。約8,000匹のイワシが泳ぐ「相模湾大水槽」を含む相模湾ゾーンをはじめ、幻想的な空間が広がる「クラゲファンタジーホール」など、趣向を凝らした展示コーナーが勢ぞろいしています。また、ウミガメへのタッチやイルカとの握手といった各種ふれあいプログラム、イルカやアシカたちによる各種ショーも必見です。その他、深海の環境を再現した水槽やクラゲの研究コーナーなど、遊びながら学べるエリアも充実しています。ぜひ一度足をお運びください。"
ムーミンバレーパーク,〒357-0001 埼玉県飯能市宮沢327-6,35.87197625,139.32582644623974,,ムーミンバレーパークは、ムーミンの物語を追体験できるテーマパークです。体験型展示施設「コケムス」では、8mを超えるムーミン谷巨大ジオラマをはじめ、楽しい仕掛けが満載！ショップやレストラン、ワークショップなど様々な角度からムーミンと仲良くなれます。アスレチックやツリーハウスもあり、森と湖の楽園を体いっぱいで感じられます。
国立科学博物館,〒110-0007 東京都台東区上野公園7-20,35.715899500000006,139.7766878394077,,国立科学博物館は、1877年に創立された、日本で最も歴史のある博物館の一つであり、自然史・科学技術史に関する国立の唯一の総合科学博物館です。上野本館では、良質で豊富な実物標本資料を中心に、フロアごとに展示テーマを設け、メッセージ性を重視することにより、わかりやすく伝えられるような展示構成としています。
サンシャイン水族館,〒170-0013 東京都豊島区東池袋3-1 サンシャインシティ ワールドインポートマートビル 屋上,35.7291388,139.7202726,,"「サンシャイン水族館」は、東京・池袋の「サンシャインシティ ワールドインポートマートビル」内にある水族館です。「天空のオアシス」をコンセプトとしており、さまざまな生き物たちの生活する姿と、ワクワクするような展示方法によって、癒しの空間を作り上げています。屋外にある「マリンガーデン」は、頭上に設置された水槽で泳ぐ生き物たちを見られるスポット。池袋のビル街を優雅に飛んでいるかのような、ペンギンやアシカの姿は必見です。 サンシャイン水族館へ電車でお越しの際は、「東池袋」駅から徒歩約5分、もしくは「池袋」駅から徒歩約10分です。お車でお越しの際は、収容台数1,800台のサンシャインシティの地下にある駐車場をご利用いただけます。"
すみだ水族館,〒131-0045 東京都墨田区押上1-1-2 東京スカイツリータウンソラマチ,35.7101011,139.8093338,,すみだ水族館は、東京スカイツリータウンRウエストヤード内に2012年にオープンした水族館です。5階と6階の2フロアからなる館内には、ペンギンやオットセイを間近で見られる屋内開放プール型水槽をはじめ、全8種類の展示コーナーが勢ぞろい！「江戸」をテーマにした日本最大級の金魚展示ゾーンや、全長50mのスロープを万華鏡に見立てた「クラゲ万華鏡トンネル」など、斬新な展示方法もポイントです。東京スカイツリーにお越しの際は、ぜひ「すみだ水族館」も合わせてお楽しみください。
東京サマーランド,〒197-0832 東京都あきる野市上代継600,35.7172571,139.27518823588804,,東京サマーランドは、屋内プール・屋外プール（夏季限定）・遊園地の3つのエリアからなる関東最大級のレジャー施設です。夏季には7種類のウォータースライダーや冒険心をくすぐるアトラクションまで、1日中たっぷり遊べる設備を沢山ご用意しております。「1Dayパス」はプールだけでなく、遊園地エリアも乗り物乗り放題で楽しめます。是非お得なこの機会にサマーランドを遊び尽くしてください！
東京ジョイポリス,〒135-0091 東京都港区台場1-6-1 デックス東京ビーチ3F～5F,35.629063,139.775894,,東京ジョイポリスは、国内最大級の屋内型テーマパークです。「デジタル」と「リアル」の融合を意味する「デジタリアル(DigitaReal)」をコンセプトに、全く新しい非日常体験を提供いたします。最新技術を駆使したVRや絶叫コースターなどのアトラクションも充実。デックス東京ビーチ内の施設なので、雨の日もお楽しみいただけます。
ロックハート城,〒377-0702 群馬県吾妻郡高山村5583-1,36.6320341,138.98827481494493,,"ロックハート城は、中世ヨーロッパの街並みが再現された「石」のテーマパークです。園内には、英国スコットランドより移築・復元された本物のお城「ロックハート城」、海外から収集したという200体のテディベアが観覧できる「テディーの家」、俳優・津川雅彦氏が長い年月をかけ世界中から集めたサンタクロースが観覧できる「津川雅彦コレクション世界のサンタミュージアム」、恐竜の化石や地球の歴史を語る鉱石を展示している「ストーンアカデミー＆石ころミュージアム」、200点以上のサインが展示されている「サインギャラリー」、カップルに人気の「スプリングベル＆恋人の泉」、世界中から集めた1,000点以上の香水が観覧できる「香水の部屋」などがあります。また、ロックハート城はプリンセス体験ができるのも人気の理由の1つです。500種以上のドレスから好きなドレスを身にまとい、まるで英国の華やかな時代にいるかのような体験ができます。ロックハート城へは、上越線「沼田駅」からタクシーで約15分です。
アソビューでは、ロックハート城のお得なクーポンを販売中。通常大人1,000円の入館料が10%割引で900円、中高生は800円が720円となります。また、ロックハート城の割引チケットはスマホでの事前購入となるので、入り口でスマホを見せるだけとスムーズに入場できます。ロックハート城のお得なクーポンを使って、日本にある小さなヨーロッパを存分に楽しんでみてください。"
さがみ湖MORIMORI,〒252-0175 神奈川県相模原市緑区若柳1634,35.60717,139.205704,,"「さがみ湖MORIMORI」は、神奈川県相模原市にあるレジャーエリアです！最寄り駅はJR「相模湖」駅で、相模湖駅前から三ケ木行きバスに乗り約8分で「プレジャーフォレスト前」に。園内は、遊園地エリアとキャンプ・バーベキューエリアの2つに分かれており、自然を満喫しながらアクティブに遊べるアトラクションが豊富。遊園地エリアには、「パディントンベアの空飛ぶブランコ」や観覧車など約30種類のアトラクションがあります。特にオススメは、アジア初上陸の巨大クライミングアトラクション「マッスルモンスター」。360度見渡せる絶景の中、思わず絶叫してしまう鳥肌モノのアスレチック施設です。夏にはじゃぶじゃぶパラダイスも！キャンプ・バーベキューエリアでは、手ぶらで本格的なBBQが楽しめるほか、可愛いパディントンベアのキャンプグラウンドで快適にキャンプができます。疲れを癒したいときは、併設の「さがみ湖温泉 うるり」へどうぞ。アソビューではお得で便利な電子チケットや、さがみ湖温泉 うるりの割引電子チケットを販売しています。この機会にぜひご利用ください。
※じゃぶじゃぶパラダイスは7/21まで平日は運休です"
富士急ハイランド,〒403-0017 山梨県富士吉田市新西原5-6-1,35.48499615,138.77793302365643,https://www.fujiq.jp/,"富士急ハイランドは、ギネス記録を持つ絶叫マシーンや恐怖のお化け屋敷で知られる一大アミューズメントパークです。全長2,045m、最高速度130km/h、最大落差70mの「FUJIYAMA」や時速180kmを記録する「ド・ドドンパ」など、スリルを求める方にうってつけのアトラクションが楽しめます。

体験型アトラクションも充実しており、飽きることなく遊ぶことが可能です。富士山シリーズのアトラクションもあり、富士山を間近で楽しむこともできます。

また、キャラクターエリアにはキッズから大人まで楽しめる設備が充実しており、中でも「トーマスランド」「リサとガスパールタウン」はお子様連れに大人気。入園無料なので、気軽に好きなアトラクションを楽しめるのも魅力の一つです。

アクセスは電車やバス、レンタカーなど様々で、公共交通機関を利用する際にはフリーパスみたいな特典も用意されています。その他の設備としては、駐車場やレストラン、ショップなども完備されています。

アドレナリン全開の絶叫体験から家族で楽しむゆったりとしたアトラクションまで、富士急ハイランドはさまざまなエンターテイメントを楽しめるスポットです。"
上高地,長野県松本市安曇上高地,36.2537562,137.6551723,,長野県にある標高約1500mの山岳景勝地。中部山岳国立公園の一部として国の文化財（特別名勝・特別天然記念物）に指定されている。上高地のランドマークともいえる河童橋や、紅葉や山々を水面に映し出す大正池、幻想的な雰囲気に包まれている田代湿原など、大自然を感じられるスポットが点在。訪れる季節によって姿を変えるため、何度も訪れたくなる人気の観光スポットには、登山客やキャンパー、観光客など年間120万人が訪れている。
河口湖,山梨県南都留郡富士河口湖町,35.51306025,138.74482431577218,,富士山世界遺産の構成資産に登録されている富士五湖のひとつで、最も長い湖岸線を持つ。ホテル沿いにあるスポットから見た「逆さ富士」は、富士山の絶景撮影スポットとして有名。春には桜、初夏にはラベンダー、秋には紅葉など、季節ごとに見どころがある。遊覧船から富士山を眺めたり、釣りやボートなどのレイクレジャーを楽しんだりと、1年中楽しく過ごせるのが魅力。「富士急ハイランド」や「北口本宮冨士浅間神社」なども近くにある。
富士山,〒401-0320 山梨県南都留郡鳴沢村字富士山,35.362799,138.730781,http://www.narusawa-kanko.jp/,日本一の高さを誇る標高3776mの活火山。信仰と芸術の象徴として2013年に世界遺産に登録された。山頂から見るご来光と眼下に広がる雲海は最大の見どころ。頂上には噴火によってできた巨大クレーターがあり、周囲を歩くのが人気のトレッキングコースだ。「富士山頂上浅間大社」は富士山信仰の聖地であり、見逃せない観光スポットのひとつ。登山シーズンは7月初旬から9月初旬頃。登山口は4ヶ所あり、山梨側が吉田口、静岡県側に富士宮口、須走口、御殿場口がある。
善光寺,〒380-0851 長野県長野市元善町491,36.661423299999996,138.18765768403284,http://www.zenkoji.jp/,1707年（宝永4）に再建した本堂は、仏堂の前面に長大な礼堂を配した撞木造と呼ばれる独特の構造を持ち、東日本最大級の規模を誇る江戸中期仏教建築の傑作である。1953年（昭和28）3月、国宝指定。山門、経蔵は国の重要文化財に指定されている。
忍野八海,〒401-0511 山梨県南都留郡忍野村忍草,35.4602407,138.8327032,http://www.oshino.jp/,富士の雄姿を眺望する忍野村には、国の天然記念物に指定された８カ所の湧水池があり、８つの池の総称で忍野八海と呼ばれている。一帯は昔、湖の底だったが、延暦１９年（８００年）の富士山大噴火で湖が分断されて水が枯れ、湧水口だけが残った。八海のうち最も湧水量が多い「湧池」は日量２３万ｔで、地底の溶岩が見通せるほど清澄。「湧池」の水質はカルシウム等のミネラル成分が多いのが特徴。池から直接水は飲めないが、売店や旅館の井戸で水を購入することができる。日本名水百選、富士山世界遺産の構成資産として登録されている。
松本城,〒390-0873 長野県松本市丸の内４−１,36.23863525,137.9688708786901,https://www.matsumoto-castle.jp/,現在も天守が残る数少ない城のひとつ。城壁の上部を白漆喰、下部を黒漆喰で塗り分けており、コントラストが印象的な外観をしている。北アルプスを背に堂々とそびえたつ松本城は堂々たる迫力。天気が良ければ、日本アルプスの山々が掘に反射して美しい景色を作り出す光景を眺められる。天守はもちろん、周りを囲む石垣や堀なども、国の史跡に指定されている。城内では、城下町の絵図や甲冑、火縄銃など貴重な資料が収蔵されている。
戸隠神社奥社,〒381-4101 長野県長野市戸隠3506,36.7656566,138.062468,http://www.togakushi-jinja.jp/,天照大御神が天の岩屋にお隠れになった時、無双の神力で岩戸を開いた天手力雄命（あめのたぢからおのみこと）を御祭神として祀る戸隠神社の御本社。御神徳は開運、心願成就、五穀豊穣、スポーツ必勝など。参道は2ｋｍあり中間にある樹齢400年の杉並木が圧巻です。社殿は何百メートルもの断崖の真下に建てられています。冬季（1月7日〜4月中旬頃）は雪崩の危険があるため閉山します。
諏訪大社上社本宮,〒392-0015 長野県諏訪市中洲宮山1,35.998490000000004,138.1190236226331,http://suwataisha.or.jp/honmiya.html,日本最古の神社のひとつであり、全国にある1万を超える諏訪神社の総本社だ。「お諏訪さま」「諏訪大明神」とも呼ばれ親しまれる。特徴は、本殿を持たない諏訪造りという珍しい様式で建てられており、社殿は国の重要文化財に、社叢は県の天然記念物に指定されている。徳川家康によって寄進された四脚門をはじめとする貴重な歴史的建造物が多く残っている。本宮のほかに前宮、春宮、秋宮があり、それら4社を合わせて諏訪大社と呼ぶ。
山中湖,〒401-0502 山梨県南都留郡山中湖村,35.418663249999994,138.87681399668108,http://www.vill.yamanakako.yamanashi.jp,富士山の構成資産の一部として世界文化遺産に登録されている富士五湖のひとつ。冬は湖が凍ることから、湖面に穴をあけてワカサギを釣り上げる「氷上ワカサギ釣り」の場所として有名。暖房・お手洗い完備の山中湖ドーム船に乗れば、雪景色を眺めながら釣りを満喫できる。12～1月初旬には、太陽が富士山の山頂部に重なる「ダイヤモンド富士」を見られることも。湖畔沿いには約13kmの周回コースがあり、美しい自然風景を見ながらサイクリングやランニングも楽しめる。
苗場スキー場,〒949-6292 新潟県南魚沼郡湯沢町三国202,36.79502445,138.77875634800267,,
諏訪湖,長野県岡谷市,36.0479452,138.08328458643942,,長野県の中心にある、信州で最も大きい湖。湖面積は13.3平方キロメートルにもなる。湖畔の散策や美術館・美術館巡り、カヤックツアーなどいろんな楽しみ方を満喫できる。中でも、水陸両用車に乗って陸上と水上からの景色を楽しむ諏訪湖ダックツアーは、諏訪湖ならではのアクティビティ。夏には花火大会、冬には結氷が膨張して割れ裂ける現象「御神渡」が見られることもある。季節によってさまざまな体験ができるのが魅力だ。
かぐらスキー場,〒949-6211 新潟県南魚沼郡湯沢町三俣742,36.8462252,138.77587,,
GALA湯沢スキー場,〒949-6101 新潟県南魚沼郡湯沢町大字湯沢字茅平1039-2,36.944065,138.795273,,「GALA湯沢スキー場」は、東京駅から上越新幹線で最速約71分で到着できる新潟県湯沢のスキー場です。初級者さんはもちろん、上級者さんや小さなお子さまも安全に楽しめる様々なパークをご用意しております。ゲレンデデビューやスキルアップ、お子さまとの雪遊びなど、ぜひ当スキー場をご利用ください！無料シャトルバスも運行中♪
渋温泉,長野県下高井郡山ノ内町渋,36.734455,138.4306325,http://www.shibuonsen.net/,奈良時代の僧行基が開湯したと伝えられ、武田信玄の隠れ湯として歴史もあり古くから湯治場として栄えてきました。レトロな雰囲気と活気ある温泉場として人気があります。外湯は9つあり効能あらたか。手ぬぐいに朱印を押しながらの外湯巡り（宿泊者のみ）が魅力です。
本栖湖,〒401-0337 山梨県南都留郡富士河口湖町本栖,35.46430555,138.5855049574845,,富士五湖のひとつで、千円札の裏側に描かれる「逆さ富士」が撮影されたスポット。水深121.6mと富士五湖のなかでもっとも深く、本州一の透明度を誇る。水質が良く、ヒメマスやワカサギ釣りを楽しめるスポットとして有名。周辺にはキャンプ場があり、新鮮な魚をその場で調理して食べられるのも魅力だ。シュノーケリング・ダイビング・SUPヨガ・ウインドサーフィンなど、多彩なレイクアクティビティも楽しめる。
野沢温泉スキー場,〒389-2502 長野県下高井郡野沢温泉村大字豊郷7653番地,36.917224149999996,138.46402262202645,,
昇仙峡ロープウェイ,〒400-1217 山梨県甲府市猪狩町441,35.7531712,138.5637431,,"山梨県甲府市にある昇仙峡ロープウェイは、山麓の仙娥滝駅から山頂のパノラマ台駅をつなぐ、ロープ全長1,015mのロープウェイです。昇仙峡の美しい自然美を間近で楽しむことができ、山頂の展望台からは360度のパノラマビューが広がります。霊峰富士を眺める浮富士広場や弥三郎岳、和合権現などパワースポットとしても人気です。"
ビーナスライン,〒391-0321 長野県茅野市～上田市,36.1695469,138.1304989,https://www.venus-line.net/,長野県の茅野市から上田市の美ヶ原高原美術館まで続く約76㎞の全長を誇る観光道路。ただ通るだけでなく、各スポットで車を止めて散策できるのがビーナスラインならではの楽しみ方だ。道路には、信州の展望台と呼ばれ浅間山や北アルプスを望める美ヶ原高原や、釣りやBBQが楽しめるスポットなどがある。夏は高山植物がきれいに咲き美しい風景を満喫できる。周辺には宿泊施設も充実しているので泊りがけで楽しむのもおすすめだ。
御嶽山,長野県上伊那郡飯島町飯島御嶽山,35.8929915,137.4804059,https://go-iijima.nagano.jp,標高3067ｍにも及ぶ火山。裾野が大きく広がっており、台形状になっているのが特徴の独立峰だ。富士山や白山と同様、信仰の対象となる霊峰でもある。ロープウェイがあるので7合目までは、誰でも簡単に登山が可能。絶景はもちろん、高山植物園やお花畑も楽しめる。冬には、スキーをはじめとするウィンタースポーツも盛んだ。2014年に噴火してから入山規制があるため、訪れる際はあらかじめチェックが必要だ。
新潟市水族館 マリンピア日本海,新潟県新潟市中央区西船見町5932-445,37.924023,139.028152,http://www.marinepia.or.jp/,"約500種2万点の水生生物に出会える日本海側有数の規模を誇る水族館。日本海大水槽の底を通るマリントンネルからの眺めは迫力満点！まるで海中にいるかのよう。

毎日開催されているイルカショーはわかりやすい解説が魅力。

かわいいペンギンやアザラシに思わずにっこり。美しい魚たちに心が和みます。

広い館内は魚たちが見やすい展示になっており、大人も子どもも家族みんなで楽しめます。"
河童橋,長野県松本市上高地,36.2488433,137.6378377,http://www.kamikochi.or.jp/,上高地の名所。梓川にかかる吊り橋で現在5代目を数える。河童橋の名の由来は、昔ここに河童がすみそうな深い淵があったため、あるいはまだ橋のなかった時代、衣類を頭に乗せて川を渡った人々が河童に似ていたから、など幾つかの説があるが、真相は定かでない。
石和温泉郷,〒406-0031 山梨県笛吹市石和町内,35.6573077,138.6571025,http://www.isawaonsen.or.jp/,昭和３６年、ぶどう畑の中から突然温泉が湧き出して以来、たちまち新興温泉郷として全国に知られるようになった。湯量の豊富さは全国でも有数で、毎分５万リットルの湯が湧出している。リューマチ・神経痛・骨・関節などの運動器障害・外傷性障害の後療法などに適しており、温泉内にはリハビリテーションの近代的施設を備えた温泉病院も多い。周辺は、ぶどう・桃・梨・りんご・柿などの果樹園が広がり、その間を笛吹川が流れる。
立山黒部アルペンルート,〒398-0001 長野県大町市平,36.5680842,137.5380348,http://www.alpen-route.com/,"富山県と長野県を結ぶ総延長37.2kmの山岳観光ルート。標高3,000mを超える山々が連なる壮大な絶景を楽しめる。鉄道・ケーブルカー・電気バスと移動手段が豊富で、散策ルートと組み合わせて各地の観光名所を回れる。日本一の堤高を誇る「黒部ダム」や、四季折々の高原植物が美しい湿地「弥陀ヶ原」は圧巻の光景。秋には一面に色づく幻想的な紅葉を楽しめる。立山星の雫や立山地ビールなどこの土地ならではお土産も見逃せない。"
清津峡,新潟県十日町市小出,36.9863379,138.7441532,http://nakasato-kiyotsu.com/,"黒部峡谷・大杉谷とともに日本三大峡谷の一つとして知られる「清津峡」は昭和24年9月に上信越高原国立公園に指定され、学術的資料の宝庫。
川を挟んで切り立つ巨大な岩壁は全国に誇るV字型の大峡谷をつくり、国の名勝天然記念物にも指定されています。
雄大な柱状節理の岩肌と清流・清津川の急流の取り合わせはダイナミックで素晴らしく、訪れる人々に深い感動を与えます。

清津峡渓谷トンネルは、第７回（2018年）大地の芸術祭で、中国の建築ユニットである「マ・ヤンソン／MADアーキテクツ」によるアート作品「Tunnel of Light」としてリニューアルオープンしました。
洞窟をイメージした入り口を進むと、大峡谷の岩肌を間近で鑑賞できる見晴所や、光の演出の通路、歪んだ鏡が並ぶ空間など、自然をただ見るだけでなく、別の視点から見る仕掛けがたくさん。一番の見どころはトンネルの一番奥にあるパノラマステーションで、トンネルの壁にはステンレス板、床一面には水が張られており大峡谷が映り込みます。
トンネルすぐそばのエントランスには1階にカフェ、2階には足湯が新設され、より一層楽しめる施設となっています。"
野沢温泉,長野県下高井郡野沢温泉村,36.9231588,138.4465531,,天然温泉100％かけ流しの江戸時代から続く、歴史ある温泉。湯仲間という制度によって大切に守られてきた外湯は、村人だけでなく観光客にも解放されている。温泉街には、外湯が13ヶ所点在しており、外湯巡りを楽しめるのは野沢温泉の魅力。清潔に保たれた共同浴場では、村人と観光客が楽しそうに会話する光景を目にすることもでき長閑な雰囲気だ。また温泉たまごや、長野県の郷土料理「野沢菜漬け」など名産も多く、温泉だけでなくグルメも満喫できる。
ハルニレテラス,〒389-0111 長野県北佐久郡軽井沢町長倉2148,36.3593866,138.59043794649472,https://www.hoshino-area.jp/shop,「軽井沢星野エリア」にある小さな街。レストランやカフェをはじめ、北欧雑貨のセレクトショップ、マッサージ店など16店舗が集まる人気スポットだ。店舗間を広いウッドデッキがつなぎ、まるで大きなテラスのような雰囲気が漂う。湯川の清流に自生するハルニレの木立を生かして作られており、大自然の中にいるような気持ちになれる。周辺には、「星野温泉 トンボの湯」もあり、1日中いても飽きずに楽しめる場所となっている。
上田城,長野県上田市二の丸,26.7953436,114.8785507,,"上田城は真田昌幸により天正11年(1583)に築かれました。上田盆地のほぼ中央の地に位置する平城で、千曲川（その分流尼ヶ淵）に望む段丘の崖を利用して築城されており、真田昌幸は二回にわたって徳川軍の攻撃を撃退しています。このような二度もの実戦の歴史をもつ近世城郭は全国的にも例はなく、数少ない兵力で大軍を退けた名城として、早くに国の史跡に指定されました。
上田城は慶長五年（1600）の関ヶ原合戦後、真田昌幸・幸村（信繁）父子が西軍につき、上田城に立てこもって、徳川秀忠軍が西へ向かうのをくい止めたことに対する処分のひとつとして、建物はもちろん、濠も埋められるなど、完全に破壊されてしまいました。その後、真田氏のあと上田藩主となった仙石忠政が、上田城の一部が復興されています。
仙石氏の復興した当時の姿を残す西櫓は現在、県宝に指定されています。"
上越国際スキー場,〒949-6431 新潟県南魚沼市樺野沢112-1,37.0322113,138.8218689,,上越国際スキー場は、新潟県南魚沼市にあるスキー場です。広大な土地にマザーズゾーン、アクティブゾーン、パノラマゾーン、フォレストゾーンの4つのゾーンで構成され、老若男女楽しめます。各ゾーンの中にある自慢のゲレ食を味わう事も可能です。がっつり系から甘味までバラエティー豊かなメニューがございます。是非、足をお運びください。
福井県立恐竜博物館,〒911-8601 福井県勝山市村岡町寺尾51-11,36.0823042,136.5065708,,
黒部ダム,〒930-1406 富山県中新川郡立山町芦峅寺,36.5666941,137.66363857226673,http://www.kurobe-dam.com/index.html,大自然の中、幾多の困難を乗り越えて昭和38年に完成した世紀の大事業「黒部ダム」は、高さ186ｍ、長さ492ｍの日本最大のアーチ式ドーム越流型ダムで、世界でも最高クラス。毎秒10ｔ以上の水を吹き出す観光放水は迫力満点で、期間は6月下旬〜10月中旬。
兼六園,〒920-0936 石川県金沢市兼六町１,36.5624267,136.66235460908416,http://www.pref.ishikawa.jp/siro-niwa/japanese/top.html,日本三名園として有名な兼六園。国の特別名勝に指定されています。広大な園内には築山、池、茶屋などが点在しており、それぞれの景観を楽しみながら廻遊する庭園となっています。四季を通じてさまざまな自然美が堪能でき、雪から木の枝を守るために施される“雪吊り”は金沢の冬の風物詩として、ぜひ見てみたい景色です。夜のライトアップでは幻想的に彩られた庭園が広がります。（ライトアップの実施日については、イベントページをご覧ください。）『ミシュラン・グリーンガイド・ジャポン』で最高ランクの三つ星を獲得しています。
東尋坊,福井県坂井市三国町,35.7107939,139.7751562,http://kanko-sakai.com/,日本海に突き出した柱状の断崖が1km余も続く奇観で、輝石安山岩の柱状節理という地質学上にも珍しい奇岩。国の名勝・天然記念物に指定されており、断崖上に荒磯遊歩道(約4km)が続いている。また、すぐ下から観光遊覧船が運航しており、海上から眺める東尋坊もひと味違った見ごたえがある。
曹洞宗大本山永平寺,〒910-1228 福井県吉田郡永平寺町志比5-15,36.055313,136.352173,,曹洞宗の大本山。寛元2年（1244年）に道元禅師によって出家参禅の道場として開創されました。樹齢680年といわれる老杉に囲まれた敷地には、「七堂伽藍」をはじめとする70余りの殿堂楼閣が点在しています。坐禅体験・写経体験のほかに、泊まりこみで雲水の修業に近い生活を送る参籠や参禅の体験をすることもできます。参籠・参禅は２週間前までの事前予約が必要です。
金沢21世紀美術館,〒920-8509 石川県金沢市広坂1-2-1,36.5608432,136.65820907610328,http://www.kanazawa21.jp/,全国的に有名な金沢が誇る人気の観光スポット。誰もがいつでも立ち寄ることができ、様々な出会いの場となることを目指した現代アート美術館です。特に、レアンドロ・エルリッヒ作の《スイミング・プール》(通称:レアンドロのプール)は見逃せません。プールを介して地上と地下で人と人が出会うことができる話題の作品です。館内では感性を刺激する展示物をたくさん鑑賞できます。魅力的なミュージアムショップ、レストランも併設しているので、旅の計画の際には時間を長めにとってゆっくりと滞在するのがおすすめです。
近江町市場,〒920-0905 石川県金沢市上近江町50,36.5714434,136.656035,http://www.ohmicho-ichiba.com,金沢の食文化を支える「市民の台所」として親しまれている近江町市場。狭い小路には約180の店が並び、新鮮な海の幸や地元産の野菜や果物などが豊富に揃っていて、常にたくさんの観光客で賑わっています。日本海で獲れた魚介を使った名物の海鮮丼は「ネタが大きくて、美味しい！」と評判です。地元の食材を使ったご当地グルメを食べながら、お店の人との会話を楽しむのも醍醐味です。
のとじま水族館,〒926-0216 石川県七尾市能登島曲町15-40,37.148723000000004,136.98215973889262,,
和倉温泉,〒926-0175 石川県七尾市和倉町,37.074912,136.9256945,http://wakura.or.jp/,能登半島随一の規模の温泉街。1200年前にシラサギが沐浴しているのを村人が見て，温泉を発見したという。こんこんと湯が湧き出すことから，“湧浦”と呼ばれ，現在の地名になった。近代的な旅館やホテルが海沿いに林立しており，1989年には和倉温泉シーサイドパークも完成している。カキ，寒ブリ，ナマコなど新鮮な魚介類が食膳を飾る。◎総湯　湯の湧く浦。これが和倉という名の由来で，能登半島の付け根，七尾湾に面した海の温泉である。温泉街の中央に立つ総湯は，和倉温泉の歴史を刻む外湯。最近は建物も新しくなり，浴場にはジェット噴流や気泡風呂が設備されている。強食塩泉，90度の源泉を適温に下げている。皮膚病，神経痛，腰痛，気管支炎などに効果あり。
ひがし茶屋街,〒920-0831 石川県金沢市東山1丁目,36.5725559,136.6666756,https://www.kanazawa-kankoukyoukai.or.jp/spot/detail_10212.html,加賀藩公認の茶屋街として栄えた、金沢を代表する定番観光スポット。建物は中を見せないための格子「木虫籠（きむすこ）」を用いた建築様式が特徴で、国の重要伝統的建造物群保存地区に選定されている。老舗の茶屋が立ち並び、ノスタルジックな雰囲気が漂う。町家をリノベーションしたカフェや、加賀友禅・金沢箔といった伝統工芸品のお店など、約140店舗以上が軒を連ねる。茶道や金箔貼りといった文化体験にも参加できる。
千里浜なぎさドライブウェイ,石川県羽咋郡宝達志水町（羽咋市）,36.8446934,136.7512802,http://www.city.hakui.lg.jp/sypher/www/index.jsp,日本で唯一砂浜を車で走れる観光道路。全長約8km続く千里浜の砂は粒子が細かく、水を含むと砂が固く絞まり沈みにくくなるため、普通自動車でも問題なく走れる。壮大な海を横目に爽快感を味わいながらドライブを楽しめる。日没直前、空を真っ赤に染めながら水平線に沈んでいく夕日は圧巻の美しさ。運が良ければ、早朝は海面に立ち込める幻想的な朝靄を見られる。周辺観光も楽しむなら、レンタサイクルがおすすめ。
丸岡城,〒910-0231 福井県坂井市丸岡町霞町1-59,36.15235865,136.27212515000002,http://kanko-sakai.com,戦国時代の天正4年(1576)、織田信長の命を受けた柴田勝家が、甥の勝豊に築城させた平山城。別名：霞ケ城。現在は天守閣の一郭を残すのみだが、その二層三階の天守は、入母屋造りの屋形に回縁勾欄付きの望楼を乗せた初期天守の形式を伝えており、城郭建築史上の重要な遺構とされている。
越前松島水族館,〒913-0065 福井県坂井市三国町崎74-2-3,36.2526485,136.1466764,,越前松島水族館は、福井県坂井市に位置する「みて・ふれて・楽しく学べる」をテーマにした体感型の水族館です。日本海の魚を中心とした約350種類の魚をはじめ、アザラシやカワウソなど、多彩な海の生き物を展示しています。足元がシースルーの水槽「珊瑚の海」や、ペンギンたちが頭上を飛ぶ「水中トンネル」、夏は魚たちと一緒に泳げる「じゃぶじゃぶ海水プール」など、ユニークな展示が大好評！また、イルカショーや巨大タコとのふれあい、餌やり体験、ペンギンのおさんぽタイムなど、各種プログラムも充実しています。
一乗谷朝倉氏遺跡,〒910-2153 福井県福井市城戸ノ内町28-37,35.9936836,136.290679,,一乗谷にある国の重要文化財・特別史跡・特別名勝。遺跡は、戦国時代に朝倉氏五代が支配したといわれる城下町跡が、武家屋敷・寺院・町屋・職人屋敷など町並がほぼ完全な姿で発掘された大変貴重なもの。毎年8月には「越前朝倉万灯夜」「越前戦国まつり」を同時開催。火縄銃の迫力ある砲煙を見ることができる。夜には約15000個のキャンドルが灯され、幻想的な雰囲気に包まれる。
白山,石川県白山市尾口/白峰,35.7215167,139.7521715,http://www.kagahakusan.jp/,石川県白山市と岐阜県大野郡白川村に跨る、標高2702mの活火山。富士山、立山と並んで、日本三名山のひとつに数えられている。石川県・岐阜県・福井県それぞれに登山口があり、ハイシーズンは多くの登山客で賑わう。別当出合からスタートして御前峰山頂を目指すルートが定番。道中には、木道が整備された「白山弥陀ヶ原」があり、美しい高山植物が一面に広がる。手付かずの自然が残る白山は、2016年にはユネスコエコパークに拡張登録された。
あわら温泉,福井県あわら市あわら温泉,36.22377405,136.19299619886863,,明治16年に灌漑用の堀りぬき井戸から湧出し、開湯130年の歴史を誇る、北陸を代表する温泉地のひとつ。旅館ごとに源泉を持っているため、いろいろな湯ざわりを楽しむことができる。福井観光の基地として多くの浴客を集めている。
スキージャム勝山,〒911-0000 福井県勝山市170-70,36.070188349999995,136.555919711412,,
宇奈月温泉,〒938-0282 富山県黒部市宇奈月温泉,36.8155304,137.5841206,http://www.unazuki-onsen.com/,北アルプス黒部峡谷の入口にある、県下随一の温泉地、黒薙の源泉から引湯しており、湯量は豊富、大自然の美しさはもちろん味覚のすばらしさも魅力のひとつで、川魚や山菜、日本海の新鮮な海の幸も楽しむことができる。トロッコ電車などでの黒部峡谷探勝や、スキーなどの基地として利用されている。
雨晴海岸,〒933-0133 富山県高岡市太田,36.8150193,137.04191612357573,https://www.takaoka.or.jp/viewpoint/archives/524,能登半島国定公園内に位置し、「日本の渚百選」「白砂青松百選」のひとつに選ばれている絶景スポット。「世界で最も美しい湾クラブ」にも加盟している。富山湾越しには、標高3000mを超える立山連峰がそびえ立つ。打ち上がる波しぶきと山々の絶景は圧巻の風景。晴れた冬の早朝には、海面に薄い霧が立ち込める幻想的な「気嵐」が見られる。奈良時代の歌人大伴家持も雨晴海岸の景色に魅了されたと言い伝えられ、万葉歌にも詠まれている。
立山,富山県砺波市,41.1452706,123.0206182,,雄山や大汝山など標高3000mを超える山々からなる峰の総称。剱岳と並び、氷河ある山として知られる登山の聖地だ。森林浴や自然観察を楽しみながら散策できる「美女平遊歩道コース」や木道が整備された「弥陀ヶ原遊歩道コース」など、初心者でも挑戦しやすいウォーキングなどのコースが充実。山頂からは、剱岳や北アルプスの雄大な山々の絶景が広がる。夏は高山植物が美しく、例年10月下旬にはラムサール条約に登録された弥陀ヶ原の紅葉が見頃を迎える。
称名滝,〒930-1406 富山県中新川郡立山町芦峅寺字ブナ坂外11国有林,36.5753764,137.5235437,https://kanko.town.tateyama.toyama.jp/pub/,称名滝は４段から成る大滝で、落差日本一（350m）を誇ります。その水量は多い時で毎秒100トンを超えるとも言われており、国指定名勝・天然記念物に指定されているほか、「日本の滝100選」にも選ばれています。雪解け水が流れ込む春や、大雨の後には、称名滝を上回る、落差500ｍの「ハンノキ滝」が現れます。二つの滝がＶ字になって流れ落ちる様は、まさに迫力満点です。
輪島の朝市,〒928-0001 石川県輪島市河井町本町通り,37.393616,136.906967,https://asaichi.info/,輪島市朝市組合という組織になっていて，現在組合員は460名を数えるという。その日によって出る店も場所もまちまちだが，だいたい100軒から250軒ぐらいの店が並ぶ。やはり鮮魚を扱う店が一番多く，珍しい魚もある。なかでも舳倉島の名物蒸しアワビやサザエが目を引く。また，民芸品を扱う店も結構目立つ。もちろん輪島塗りから始まって藁細工の小物や手作りのアクセサリーなど，女性向けが多いよう。
黒部峡谷,〒938-0179 富山県黒部市宇奈月町　舟見明日音澤,36.814789,137.586112,https://www.kurobe-unazuki.jp/,黒部川が、立山連峰と後立山連峰の間に刻み込んだ峻険な峡谷で、10か所の発電所があります。宇奈月温泉から欅平まで全長20.1kmの黒部峡谷鉄道が、峡谷探勝のトロッコ電車として人気を集めています。大小41のトンネルをくぐり、22の橋を渡る間に、谷間の奔流や天を突く岩壁のスリルを味わえます。
湯涌温泉,〒920-1123 石川県金沢市湯涌町イ１番地,36.4880688,136.7557526,https://www.yuwaku.gr.jp/,開湯1300年の歴史を持つ温泉。泉で身を癒す白鷺を見た農夫が、温泉を発見したことが始まりだといわれている。藩政時代、加賀藩の歴代藩主が湯治に訪れる隠し湯だったという。温泉街には、旬の素材を使用した金沢創作懐石が自慢の「金沢湯涌温泉 古香里庵」や、5つの貸切風呂を完備した「金澤湯涌温泉 百楽荘」など、7軒以上の温泉旅館が軒を連ねる。日本の画家・竹久夢二が愛人である笠井彦乃と約1ヶ月近く滞在したことでも知られている。
海王丸パーク,〒934-0023 富山県射水市海王町8,36.7803254,137.1061841,http://www.kaiwomaru.jp/,海王丸パークでは、海の貴婦人と呼ばれる海王丸をシンボルとして、現役当時の姿のままで、公開しています。また、海王丸に全部で29枚ある帆をすべて広げる総帆展帆が年10回行われています。海王丸を望むベイサイドは、さわやかな潮風と緑の芝生に囲まれたふれあいスポット。広いイベントスペースやバーベキューができる広場、ちょっぴりスリルのある遊具がある「ふれあい広場」などがあり、ファミリーやグループなどでに賑わっています。海洋講座・海洋教室も行われています。
日本海さかな街,〒914-0125 福井県敦賀市若葉町1-1531,35.634113,136.05053,http://www.sakanamachi.info/,敦賀港周辺で獲れた新鮮な海産物を買える市場。港直送の魚介類が並ぶ鮮魚店はもちろん、珍味・干物を扱う水産加工品店、漬物店、お茶屋、木製漆器店など、個性豊かな60以上の店舗が並ぶ。獲れたての海産物を食べられる飲食店が約17店舗あり、寿司・海鮮丼・浜焼き・鉄板焼き・かに料理といった多彩なメニューを堪能できる。毎週土曜日にはマグロの解体ショーを実施。市場内には休憩所やキッズスペースも完備されている。
ナガシマスパーランド,〒511-1192 三重県桑名市長島町浦安333,35.03066815,136.7333356545717,,"「ナガシマスパーランド」は三重県桑名市にある多彩なアトラクションが魅力のテーマパーク。
日本初上陸の4Dスピンコースターや、世界級のスーパーコースターなど、大人が全力で楽しめるアトラクションをご用意。
また、小さなお子様でも遊べる約50種類の遊具がそろったちびっこひろばをはじめ、キッズ向けの低速コースターも取り揃えていますので、お子様連れのファミリーにもおすすめ！
レストランやカフェも豊富なので、1日中しっかりお楽しみいただけます！"
名古屋港水族館,〒455-0033 愛知県名古屋市港区港町１番３号,35.090970049999996,136.87803347297415,,名古屋港水族館は、愛知県名古屋市港区にある水族館です。様々なイベントやプログラムを通して、海の生き物の生態や進化の秘密を発見できます。約500種を超える世界中の海の仲間たちが、​みなさまのお越しをお待ちしています。アクセスは、地下鉄名港線「名古屋港駅」より徒歩約5分。名古屋高速道路「港明IC」より車で約10分です。
伊勢神宮内宮（皇大神宮）,〒516-0023 三重県伊勢市宇治館町1,35.4500935,139.6266065,https://www.isejingu.or.jp/index.html,三重県伊勢市にある日本を代表する神社。全国8万社の神社を包括する「神社本庁」の本宗で、「伊勢の神宮」「お伊勢さん」などとも呼ばれている日本有数の観光名所である。天照大御神（アマテラスオオミカミ）を祭神とし、広大な敷地内は内宮と外宮で構成される。散策コースとしては内宮から入り外宮へと向かうコースが一般的。内宮の宇治橋を渡った先は神域とされ、「心のふるさと」と称される日本の原風景に心癒される。縁結びのパワースポットとしても知られ、女性の観光客に特に人気。
なばなの里,〒511-1144 三重県桑名市長島町駒江漆畑270,35.07990625,136.70486474214567,,"「なばなの里」は梅、桜、桃、チューリップやコスモス、ベゴニアなど四季それぞれの美しさで花々を堪能でき、フォトジェニックなスポットにあふれる日本最大級の花のテーマパーク。
国内最大級のベゴニアガーデンでは年中満開の大輪ベゴニアをはじめ、世界各国から集めた数百種・１万２千株の絢爛たる花々を常時栽培･展示しています。エントランスを抜けるとそこはベゴニアに囲まれた夢のような空間。約9,000㎡の大温室で約5,000鉢の球根ベゴニアが咲き誇る景色をお楽しみいただけます。
花々や夜景を見ることができるアイランド富士では地上45メートルの高さから、雄大な風景を360度のパノラマで望むことができます。

ほかにもホタル、イルミネーション、日帰り温泉もお楽しみいただけます。"
富士サファリパーク,〒410-1231 静岡県裾野市須山字藤原2255-27,35.259988,138.810618,http://www.fujisafari.co.jp,"自然動物公園。のびのびと自由に過ごす動物をマイカーやバスの中から間近に見学することができる「サファリゾーン」や、かわいらしい動物と触れ合える「ふれあいゾーン」がある。
また、サファリゾーンの外周を歩きながら動物を観察できる「ウォーキングサファリ」も人気。"
熱田神宮,〒456-8585 愛知県名古屋市熱田区神宮1丁目1-1,35.12543065,136.90925354654922,http://www.atsutajingu.or.jp,名古屋市にある日本国内でも格式の高い神宮のひとつ。敷地は約19万平方メートル。広大な境内には、本宮をはじめ、別宮、摂社、末社など多くの神社が点在している。織田信長が桶狭間の戦いに出陣する前に訪れたという「信長塀」、水の神である罔象女神（みずはのめのかみ）が祀られており美肌と目にご利益がある「清水社」も見どころだ。絵画や工芸品などを収蔵、展示している「宝物館」では毎月選りすぐりの宝物を鑑賞できる。
鳥羽水族館,〒517-8517 三重県鳥羽市鳥羽3丁目-3-6,34.4819361,136.84541805022042,,"鳥羽水族館は、三重県鳥羽市にある""飼育種類数日本一""の水族館です。通路全長約1.5kmの館内には全12のゾーンがあり、哺乳類や魚類、は虫類など、約1,200種の生きものを展示しています。また、国内唯一の展示となるジュゴンをはじめ、ラッコやイロワケイルカといった珍しい生きものも多数。水上透明チューブで間近に見れるアザラシやトド、パフォーマンスショーのアシカなど、人気の海獣も揃い踏みです。アクセスはJR・近鉄鳥羽駅から徒歩約10分。ご家族やご友人同士での思い出作りに、ぜひ気軽に足をお運びください。"
名古屋市東山動植物園,〒464-0804 愛知県名古屋市千種区東山元町3-70,35.1565274,136.9818196479352,,
おかげ横丁,〒516-0024 三重県伊勢市宇治今在家町117　内宮前 勢乃國屋,34.4624416,136.7226865,,
名古屋城,〒460-0031 愛知県名古屋市中区本丸1-1,35.1816051,136.9054953,,
下呂温泉,〒509-2207 岐阜県下呂市湯之島,35.8084673,137.2499485,,"1000年の歴史をもつ下呂温泉。傷ついた一羽の白鷺が温泉のありかを知らせたという伝説があり、室町時代には高僧万里集九が江戸時代には儒学者林羅山が有馬・草津にならぶ「天下の三名泉」と紹介しました。ツルツルスベスベした肌触りから別名「美人の湯」とも呼ばれており、旅館ホテル保養所などの宿泊施設が軒を連ねています。　このような観光案内を下呂市総合観光案内所0576-25-4711でも行っています。　温泉街の真っただ中には「噴泉池」があり、飛騨川のせせらぎをバックに下呂温泉の源泉を堪能できるため、下呂温泉の名所となっています。※無料、要水着着用。　温泉街の東、丘陵地には10棟の合掌造りを集めた観光施設「下呂温泉合掌村」があり,紙すき、陶器の絵付け、陶芸などのできる体験施設「飛騨工房」があります。"
鈴鹿サーキット,〒510-0295 三重県鈴鹿市稲生町7992,34.8436092,136.53423133396456,,三重県鈴鹿市にある「鈴鹿サーキットパーク」は自分で操縦できるアトラクションがいっぱい！アトラクションごとにミッションが用意されていて、お子さまのいどむココロをくすぐる仕掛けが豊富なテーマパークです♪0歳から乗車できるアトラクションもあり、家族みんなでお楽しみいただけます！
志摩スペイン村パルケエスパーニャ,〒517-0212 三重県志摩市磯部町坂崎952-4,34.356754,136.842804,,
白糸の滝,〒418-0103 静岡県富士宮市上井出・原,35.312991,138.5872234,http://www.fujinomiya.gr.jp/,世界遺産・富士山の構成資産。湾曲した絶壁の全面に大小数百の滝が絹糸のように落ちる。本滝の一部を除いてすべて湧水となっている。春の藤・秋の紅葉は滝に色どりをそえる。名勝・天然記念物に指定。日本観光百選滝の部第１位。
熱海温泉,〒413-0018 静岡県熱海市上宿町7,35.1026545,139.0784533,http://www.ataminews.gr.jp/,全国でも有数の大温泉で、尾崎紅葉の「金色夜叉」の舞台としても有名。箱根や伊豆の山々に囲まれた斜面に温泉街が開け、その夜景の美しさは“東洋のナポリ”とも言われている。気候も温暖で、１月下旬には「あたみ桜」という品種の桜が咲き始める。近くには数多くの名品を所蔵するＭＯＡ美術館や日本一早咲きといわれる熱海梅園があり、県内唯一の離島「初島」へも高速船が出ている。
国宝犬山城,〒484-0082 愛知県犬山市大字犬山字北古券65-2,35.3864637,136.9388334,http://www.inuyama-castle.jp/,木曽川の南岸にそそりたつ犬山城は、今から470年ほど前、織田氏によって築かれました。別名「白帝城」といわれており、日本最古の天守閣は国宝に指定されています。◎成瀬正成（１５６７-１６２５）三河出身。幼少時より徳川家康に仕え、尾州藩創業時に尽力、その功として藩の両家年寄となり、尾北の犬山に居城、三万石を領した。家臣でありながら城持。
大室山,〒413-0231 静岡県伊東市富戸先原1317-5,35.510958,139.068526,http://omuroyama.com/,静岡県伊東市にある標高580mの火山で、伏せたお椀のようなシルエットが特徴的。毎年早春に行われる山焼きは700年以上も続き、1年中植物に覆われている。リフトで登れる山頂からは、富士山・伊豆七島・相模灘などを一望できる360度パノラマが広がる。火口には安産と縁結びの神様が祀られた「大室山浅間神社」や、アーチェリーを楽しめる施設、地元の小麦まんじゅう「新名物大室山三福」の売店など、魅力的なスポットが数多く点在している。
野外民族博物館 リトルワールド,〒484-0005 愛知県犬山市今井成沢90-48,35.373116,137.01889,,"愛知県犬山市にある「リトルワールド」は、23ヵ国32の家屋が立ち並ぶ野外展示場と、世界中から集められた約6,000点もの民族資料を展示する本館展示室からなる民族博物館です。異国情緒あふれる館内では、世界各国のグルメ食べ歩きやエンターテインメント、民族衣装試着体験、ショッピングなどが楽しめます♪ パスポートの要らない“一日世界旅行”に出かけてみませんか。"
渡鹿野島,〒517-0205 三重県志摩市磯部町,34.3626954,136.87245974219135,http://www.kanko-shima.com/,三重県伊勢市の的矢湾に浮かぶ小島。周囲約6kmの小さな島は、的矢カキの養殖で知られる。昔は伊雑宮の神領「オノコロジマ」とも呼ばれ、神の島として崇められていた。江戸時代からは風待ちする避難港として栄えていたが、現在は観光地化が進み、島の形がハート型であることから「恋愛成就の島」としても知られている。旅館「福寿荘」が販売するハート型の「恋の絵馬」は、カップルや女性客に特に人気。また、7月に行われる志摩地方一番の奇祭、八重垣神社の渡鹿野天王祭も見どころのひとつ。
リニア・鉄道館,〒455-0848 愛知県名古屋市港区金城ふ頭3-2-2,35.04887345,136.8512061150298,http://museum.jr-central.co.jp/,"鉄道の実物展示や高速鉄道技術を紹介する施設。実物は、蒸気機関車から通勤電車、電気機関車、超電導リニアなど39両も展示されている。東海道新幹線の沿線の風景が細かく再現されている鉄道ジオラマも見ごたえあり。また“摩擦力"" ""遠心力""を鉄道の世界でどのように活用しているのかを学べる模型装置、鉄道の歴史がわかる映像シアター、プラレールで遊べるキッズコーナーなど、大人から子どもまで楽しめる。レアな鉄道グッズを購入できるショップもある。"
三島スカイウォーク,〒411-0012 静岡県三島市笹原新田313,35.15246365,138.98056059410212,,静岡県三島市にある「三島スカイウォーク」は、日本最長400mの歩行者専用吊橋です。高さ70mの橋の上からは富士山や伊豆の山並み、駿河湾などを一望することができます。さらに2018年7月にはアクティビティエリアもオープン！空中を横断する長さ300mの「ロングジップスライド」をはじめ、地上2～15mの木の上を冒険する「フォレストアドベンチャー」など、人気のアクティビティが盛りだくさんです。その他、カフェやレストラン、展望デッキ、天井いっぱいに花が広がるスカイガーデンなども併設しています。
新穂高ロープウェイ,〒506-1421 岐阜県高山市奥飛騨温泉郷新穂高,36.2831785,137.5799495,https://shinhotaka-ropeway.jp/,日本で唯一の2階建てロープウェイ。標高2156mの雄大な自然と四季折々の絶景を堪能できる。西穂高口駅の屋上にある展望台まで登れば、西穂高岳・槍ヶ岳・笠ヶ岳といった北アルプスの山々を360度の大パノラマで眺められる。ここから見える景色は、「ミシュラン・グリーンガイド・ジャポン」で2つ星で紹介されるほどの絶景。しらかば平駅の周辺には、足湯やアルプスのパン屋さん、飛騨の美術・工芸品を紹介する高原の画廊「飛騨乃風」など、見どころが多い。
富士スピードウェイ,〒410-1307 静岡県駿東郡小山町中日向６９４,35.37147535,138.9316381674014,http://www.fsw.tv/,富士山の近くにある首都圏に最も近い国際サーキット場。一周4563mと日本最長のレーシングコースを有する。このほか、ジムカーナコース・ショートサーキット・ドリフトコースもあり、多彩なモータースポーツを観戦できる。体験走行券を購入すれば、自分の車でスピードウェイ国際レーシングコースを走行することも可能。オリジナルグッズを購入できるお土産ショップや、富士山が見える絶景レストランもある。
養老の滝,〒503-1254 岐阜県養老郡養老町養老公園,35.2803749,136.5335618,http://www.kanko-yoro.jp/,き出た水を飲むと若返ったという物語が伝わる、「日本の滝百選」に選ばれている名瀑である。高さ約30m・幅約4mの大きさで、岩角を打ち流れ落ちる姿は圧巻の光景。周辺には、日本の名水百選に指定されている「菊水泉」、そのほとりにある「老明神」、養老名水を象徴する清らかな水「不老ヶ池」、不老長寿を祈願する参拝者が訪れる「養老寺」、雨乞い祈願の寺として建てられた「日蓮宗妙見堂」など、滝の散策と合わせて訪れたい観光名所が多数点在している。
日間賀島,〒470-3504 愛知県知多郡南知多町日間賀島,34.70506785,137.00550183726634,http://www.himaka.com/,名古屋から一番近い島。タコとトラフグの名産地であり、新鮮なタコ料理を味わえる飲食店が多い。島内では釣りや潮干狩りを楽しめるほか、イルカと触れ合えるイベントも開催される。「日間賀島東浜海水浴場」の高台にはブランコがあり、美しいサンセットを眺められることで有名。様々な漁具を展示している「日間賀島資料館」や、知多四国八十八ヶ所の霊場「大光院」など、見どころが多数。周囲5.5kmほどの大きさなので、レンタサイクルで島巡りもできる。
高鷲スノーパーク,〒501-5305 岐阜県郡上市高鷲町西洞3086-1,35.9956523,136.8582547405601,,高鷲スノーパークは、 岐阜県郡上市にあるスキー場です。小さなお子様から上級者の方まで楽しめるコースが展開されております。また、お子様連れに嬉しいキッズスペース・個室授乳室もございます。山頂にあるカフェのテラス席ではパノラマビューを望め、SNS映えすること間違いなし。屋内の施設も充実していて、老若男女楽しめます。
ユニバーサル・スタジオ・ジャパン,〒554-0031 大阪府大阪市此花区桜島2-1-33,34.6693436,135.4326743,https://www.usj.co.jp/web/ja/jp,"ユニバーサル・スタジオ・ジャパンは、映画や人気のアニメ作品から生み出された世界を具現化したエンターテイメントの宝庫です。

豊富に用意されたアトラクションは、どれも観客を主役にしたユニークな冒険へと誘ってくれます。

ドラえもんの世界を体験できる「ドラえもんXRライド～のび太と空の理想郷（ユートピア）～」、限界突破の冒険が待ち受ける「ワンピース・プレミア・サマー2023」、ゲームの世界が現実に広がる楽園「スーパー・ニンテンドー・ワールド」、きらびやかな「NOLIMIT!パレード」、多彩な魔法生物との出会いが楽しめる「マジカル・クリーチャーズ・エンカウンター～魔法生物との出会い～」など、さまざまな見どころが揃います。

国内外から集まる観客にここでしか体験できない感動を提供するユニバーサル・スタジオ・ジャパンに、ぜひ足を運んでみてはいかがでしょうか。"
アドベンチャーワールド,〒649-2201 和歌山県西牟婁郡白浜町堅田,33.6658997,135.37243446237875,http://www.aws-s.com/,"アドベンチャーワールドは、自然とのふれあいをテーマにしたレジャーパークです。さまざまな動物に出会えるこのパークは、動物好きにはたまらないスポットです。ジャイアントパンダや海に暮らす動物、肉食動物、草食動物といった多彩な生物たちが飼育されており、その愛らしさに心奪われることでしょう。

パーク内には、エントランス周辺、マリンワールド、サファリワールドといったエリアが展開されています。また、動物と触れ合えるふれあい広場や、遊びを楽しめるプレイゾーンも設けられています。

さらにアドベンチャーワールドは、ただ楽しむだけでなく学ぶ体験も提供しています。例えば、SUMMERCAMP2023では「どうぶつたちと学ぶ夏」をテーマに、動物たちの新たな魅力を体感することができます。また、ジャイアントパンダの日中共同繁殖研究といった活動を通じて、持続可能な世界・未来を目指しています。このように、楽しみながら学べる環境が整っているのが魅力です。

さらに、販売されている各種グッズも見逃せません。アドベンチャーワールドオリジナルのぬいぐるみ、ファッション商品、生活雑貨など、パークの雰囲気をお家でも味わうことができます。

アドベンチャーワールドは、動物との出会いを通じて人々の心を豊かにします。その魅力に触れて、自然への理解と愛を深めてみてはいかがでしょうか。"
姫路城（イベント）,〒670-0012 兵庫県姫路市本町68番地,34.835873,134.687363,,国宝「姫路城」は平成5年12月、奈良の法隆寺とともに、日本で初の世界文化遺産となりました。今、私たちが目にしている「姫路城」の大天守は、慶長14年（1609年）に建築されたもの。400年以上が経過した現在でも、その美しい姿を残しています。世界に認められたその姿を、ぜひ見学にいらしてください。
清水寺,〒605-0862 京都府京都市東山区清水一丁目294,34.994303,135.7844388864188,https://www.kiyomizudera.or.jp/,"西国三十三ヶ所めぐりの第１６番札所。「清水の舞台」として知られる舞台造りの本堂は釘を使わず縦横に組まれた柱が見事。舞台の下方に音羽の滝、谷を隔てて安産祈願の子安の塔がある。桜，紅葉の名所でもある。

※注釈：現在 本堂 檜皮屋根 葺き替え工事の為、本堂全体が素屋根で覆われています。参拝は通常通り可能（2020年春までの予定）"
海遊館,〒552-0022 大阪府大阪市港区海岸通1-1-10,34.6545464,135.42892109889533,,"海遊館は、大阪市港区にある世界最大級の水族館です。太平洋の自然環境を再現した全14の展示水槽が並ぶ館内には、約620種30,000点にも及ぶ海の生き物たちが大集合！ジンベエザメが悠々と泳ぐ巨大水槽をはじめ、海底トンネルのようなアクアゲートや神秘的な海月銀河など、テーマの異なる様々な水槽を巡りながら、世界中の海の生き物との出会いをお楽しみいただけます。アクセスは大阪メトロ中央線「大阪港駅」より徒歩約5分。ご家族やカップルでの休日のひと時に、ぜひ気軽に足をお運びください。"
伏見稲荷大社,〒612-0882 京都府京都市伏見区深草藪之内町68,34.967519249999995,135.77971008109822,http://inari.jp/,全国に約3万社ある稲荷神社の総本宮。創建から1300年の歴史があり、古来から続く「お稲荷さん」信仰の原点といえる場所。重要文化財に指定される本殿には、五社の神様が奉祀されている。五穀豊穣の神様として、稲作・農業・商売繁盛などにご利益がある。境内で最も有名なのは、朱塗りの鳥居が果てしなく続く「千本鳥居」。稲荷大神の使いであるキツネは、境内の至るところで発見できる。絵馬やお守りもキツネをモチーフにしたものが多いのも見どころ。
東大寺,〒630-8587 奈良県奈良市雑司町406-1,34.688243650000004,135.83975682879614,http://www.todaiji.or.jp/,奈良時代に創建された歴史の深い寺院。「古都奈良の文化財」として世界遺産に登録されている境内のほか、南大門にある鎌倉時代に再建された日本最大の木彫像「金剛力士像（仁王像」など、数多くの国宝建造物が点在。「大仏殿」は世界最大級の木造建築物で、東大寺の本尊である大仏「盧舎那仏座像（るしゃなぶつざぞう）」が安置されている。大仏は像高15mと非常に大きく、神秘的で優しい見た目から「奈良の大仏さま」として親しまれている。大仏殿と美しい木々が水面に映る「大仏池」などの自然景観も魅力だ。
奈良公園,〒630-8211 奈良県奈良市芝辻町543,34.68290075,135.85459753803804,http://www.pref.nara.jp/,東西約4km、南北約2kmの豊かな自然が広がる都市公園。奈良公園といえば、鹿と触れ合える場所として有名だ。また奈良の鹿は、古来より神の使いとして崇められ、現在は国の天然記念物に指定されている。東京ドーム約140個分の広さを誇る公園内には、縁結びに効くパワースポットとして知られる「春日大社」や世界遺産である「東大寺」などが集まり見どころが多い。1922年には国の名勝に指定され、例年1800万人もの観光客が訪れている。
天橋立,京都府宮津市,35.5680023,135.19063815218206,,"松島、宮島と並ぶ日本三景の一つ。日本海と大江山を源流とする野田川が造り出した自然の芸術で、約3.6kmの砂州に、約5,000本の松並木が続く白砂青松の景観は琴線に触れる神秘的な美しさを誇る。当地に伝わる神話では、国生みの男神イザナギが地上に座す女神イザナミのもとに通うために天から架けた橋が倒れてできたものとされる。天橋立の中には、橋立明神や磯清水などの観光名所や船が通るたびに90度回転する珍しい廻旋橋がある。途中にはベンチや休憩所もありのんびり散策するには最適。天橋立は「日本の名松100選」、「日本の白砂"
万博記念公園,〒565-0826 大阪府吹田市千里万博公園1番1号,34.8068672,135.5301449,,
道頓堀,大阪府大阪市中央区道頓堀,34.6690306,135.5015715,http://www.dotonbori.or.jp/ja/,言わずと知れた大阪・ミナミを代表する繁華街で、娯楽施設や飲食店がずらりと立ち並ぶ。グリコやかに道楽の巨大看板は、活気がある道頓堀を象徴するシンボルとして有名。演劇・演芸のメッカでもあり、人形浄瑠璃や歌舞伎、お笑い芸人のショーなどで連日賑わいをみせている。道頓堀川に設置された遊歩道「とんぼりリバーウォーク」で川辺の風景を楽しむ観光ルートもおすすめだ。
法隆寺,〒636-0115 奈良県生駒郡斑鳩町法隆寺山内1-1,34.61401295,135.73604322296865,http://www.horyuji.or.jp/,法隆学問寺とも、斑鳩寺とも称する南都七大寺の一つ。木造建築物では世界最古であり、ユネスコの世界文化遺産に姫路城とともに、日本ではじめて登録された。推古天皇の時代に聖徳太子により建立され、飛鳥時代を始めとする各時代の貴重な建造物や宝物類が広大な境内に存在している。
天王寺動物園,〒543-0063 大阪府大阪市天王寺区茶臼山町1-108,34.65064205,135.50835939741313,,
有馬温泉,〒651-1401 兵庫県神戸市北区有馬町,34.7993142,135.2460542,http://www.arima-onsen.com/,１３００年の歴史を誇る温泉で、大阪から１時間、三宮からなら４０分ほどの距離。大都会に近いわりには、しっとりとした風情をもつ。温泉神社のある高台からながめると、山合いにびっしりすき間のないほどホテル・旅館が立っている。　本温泉脇から六甲川までの約４００ｍ、細いつづれ折りの坂道は有馬本街道。昔ながらの格子戸が並び、道ばたの石の道標などに、昔日の面影が偲ばれる。　有馬の湯には、金泉と銀泉の２つの湯がある。金泉は鉄さび色の朱いお湯。噴き出したときは無色透明なのが、空気に触れるとすぐ酸化して朱くなるわけ。湯をなめると、ずいぶんしょっぱい。海水の２倍もの塩分を含んでいるという。金銀の湯の相乗作用が、胃腸病、婦人病、神経痛さらには「万病にも」効くといわれる。
鹿苑寺（金閣寺）,〒603-8361 京都府京都市北区金閣寺町1,35.0390892,135.7302109,http://www.shokoku-ji.jp/,昭和62年（1987）の大修理でいっそう輝きを増し、北山文化の象徴として国内外に知られる名刹。足利義満が応永4年（1397）西園寺家の山荘を譲り受け、義満の死後、鹿苑寺と名付けられた。金閣は舎利殿として立てられた金箔の三層楼閣が鏡湖池に映える。
六甲山,〒657-0111 兵庫県神戸市東灘区本山町　森,34.7779922,135.2637445,,兵庫県神戸市にある主峰が標高931mの山。市街地に隣接しており、ハイキング・登山・野鳥観察・キャンプを楽しめる。山頂からは、神戸から大阪平野部、和歌山方面にまで広がる絶景を堪能できる。「日本新三大夜景都市」に選ばれた夜景もおすすめだ。世界の高山植物を見られる「六甲山鉱山植物園」や、本格的なアスレチック「六甲山フィールド・アスレチック」もあり、アクティビティを楽しめるのも魅力。
元離宮二条城,〒604-8301 京都府京都市中京区二条通堀川西入二条城町５４１番地,35.0140076,135.74853690765354,,二条城は、慶長8年(1603年)に徳川家康により、京都御所の守護と将軍上洛のときの宿泊所として造営し、3代将軍家光により、伏見城の遺構を移すなどして、寛永3年(1626年)に完成しました。家康が建てた慶長年間の建築と家光がつくらせた絵画・彫刻などが総合され、桃山時代様式の全貌を垣間見ることができます。
城崎温泉,〒669-6101 兵庫県豊岡市城崎町　湯島,35.6237104,134.8135565,http://kinosakionsen-zaisanku.com/,東に円山川、背後の三方は山々に囲まれ、川沿いに「く」の字型につくられた温泉街。その川の両岸に建ちならぶ木造三階建ての旅館群が、川にかかる橋や柳並木などのまわりの環境と調和して、城崎独特の情緒を現在に伝えています。大谿川の流れに沿って桜並木としだれ柳が続き、玄武岩を重ね合わせた護岸と階段状で昔ながらの石造りの太鼓橋が温泉情緒を醸し出してくれます。７つの外湯すべて回れば生涯苦難をまぬがれて、福を受けるといわれています。　◎外湯　城崎温泉は外湯を大きな特徴として、古くから人々に親しまれ、その名もそれぞれの由来と歴史に基づいて付けられました。ＴＥＬ（０７９６）３２-０１１７　〇鴻の湯　７湯中最古の湯で舒明天皇の時代に、コウノトリが足の傷を癒しているのを発見したという開湯伝説がある。山家風の建物で、道の奥に引っ込んでひっそり建っています。庭園露天風呂もあります。　〇まんだら湯　温泉寺開祖の道智上人が千日曼荼羅行で湧出させた湯が源泉だったと伝えられています。建物も仏縁にちなんで御堂を模し、入口は唐破風エキゾチックな雰囲気。平成１３年３月リニューアルオープン。樽を浴槽にした露天風呂が新設されました。　〇御所湯　後堀河天皇の御姉、安嘉門院が来浴した湯とされています。京都御所を彷彿とさせる現在の建物は平成１７年７月に四所神社横に新築移転されました。　〇一の湯　温泉街中央の王橋のたもとにあり、城崎のシンボルです。一見歌舞伎座を思わせる桃山風の建築で、平成１１年１１月に改築され、新たに洞窟風呂が加わりました。名前は江戸中期の温泉学者、香川修徳が当時新湯といったこの湯を、天下一と推賞したことに由来します。玄関脇には「海内第一泉」の石碑が誇らしげに建っています。　〇柳湯　柳の下から湧き出した湯が始りという浴場です。大正ロマン漂う木造の浴場として平成１６年２月にリニューアルオープンしました。　〇地蔵湯　平成４年９月にさとの湯を統合して改築され、町の玄関口としてふさわしいインパクトのある建物です。この湯の泉源から地蔵尊が出たところから、この名が付けられました。　○さとの湯　平成１２年７月にＪＲ城崎駅のすぐ横にオープンしました。三階の天望露天風呂からは、円山川が一望出来、二階には和・洋風の大浴場のほか泡風呂・各種サウナがあり、いろいろな入浴が楽しめます。
延暦寺,〒520-0116 滋賀県大津市坂本本町4220,35.0656438,135.826855,http://www.hieizan.or.jp/,伝教大師最澄が比叡山に草庵を結んだことに始まる天台宗総本山。標高848mの比叡山全域を境内とする寺院で、日本仏教の母山と言われている。広大な寺域は100余りの建造物があり、延暦寺の総本堂である根本中堂（国宝）や大講堂などがある「東塔」、最澄作の釈迦如来を本尊とする釈迦堂やにない堂などがある「西塔」、横川中堂や元三大師堂などがあり、静寂に包まれた「横川」の三つのエリアに分かれている。戦国時代に織田信長の焼き討ちにあいましたが、豊臣秀吉や徳川家康などにより復興され、平成6年に世界文化遺産に登録された。
神戸どうぶつ王国,〒650-0047 兵庫県神戸市中央区港島南町7丁目1番9,34.65419115,135.22317270163722,,"神戸どうぶつ王国は「花と動物と人とのふれあい共生パーク」です。

なんといっても動物たちとの距離の近さが魅力で、自然の景観をリアルに再現したインサイドパーク（屋内エリア）では、

動物たちはほぼ放し飼い。熱帯雨林のジャングルを再現し、えさやりができるカピバラや、息遣いも感じられるほどの近さのアメリカバクなどがいる「熱帯の森」、レッサーパンダやビントロングたちが頭上で木登りする「アジアの森」など

さまざまな環境に生息する動物たちの生態が満喫できます。

またアウトサイドパーク（屋外エリア）では一緒に泳いでいるような近さのケープペンギンや水中で遊ぶゴマフアザラシなどがみられる「アクアバレー」や、組数限定のラクダライドやホース・ポニーライドも体験できます。

またバードパフォーマンスやドッグパフォーマンスは必見！動物たちの能力の高さを実感できること間違いなし！

かわいい動物たちに存分に癒やされてみてはいかがでしょうか。"
大阪城天守閣,〒540-0002 大阪府大阪市中央区大阪城1番1号,34.6873398,135.5258386,,広大な大阪城の中心にそびえる大阪城天守閣。豊臣秀吉の築城から400年余。現存する大阪城は平成7年～9年の大改修により、最新工法と技術を駆使して黄金に輝く天守閣に甦りました。8階展望台からは大阪城公園や大阪平野を見渡すことができ、展望室には本物の歴史資料を展示しています。城郭の魅力、大阪の豊かな歴史を体感してください。
NESTA RESORT KOBE（ネスタリゾート神戸）,〒673-0703 兵庫県三木市細川町垂穂894-60,34.81295,135.041443,,NESTA RESORT KOBE（ネスタリゾート神戸）は日本初の大自然の冒険テーマパークです。約230万m²にもおよぶ広大な敷地には、1Dayパスで楽しめる30以上のアクティビティをはじめ、話題のグランピングや大自然に囲まれたプール・天然温泉など、全部で60以上もの施設が勢ぞろいしています。
京都水族館,〒600-8835 京都府京都市下京区観喜寺町35-1,34.98755425,135.74787784385978,,"京都水族館は、2012年にオープンした日本初の「完全人工海水を利用した内陸型大規模水族館」です。館内には""京都の川から海に至るまでのつながり""をイメージした全10のエリアを完備。オオサンショウウオも見られる大型展示エリア「京の川」をはじめ、１～２階を吹き抜けにした「京の海（大水槽）」、約30種5000匹のクラゲが漂う「クラゲワンダー」など、どのエリアも見どころ満載です！可愛いイルカたちとスタッフによる息の合ったパフォーマンスも見逃せません。"
NIFREL（ニフレル）,〒565-0826 大阪府吹田市千里万博公園2-1 生きているミュージアム ニフレル,34.8062757,135.53364562490057,,"ニフレルは、大阪・万博記念公園の大型複合施設「EXPOCITY」内にある新感覚ミュージアムです。コンセプトは""感性にふれる""。水族館・動物園・美術館のジャンルを超えた斬新かつユニークな展示がポイントで、館内には「いろ」「わざ」「すがた」「みずべ」「うごき」「つながり」「WONDER MOMENTS」の全7つのゾーンが完備されています。""動くアート""のように展示された水と陸の生き物、照明・音楽・映像が融合した光のインスタレーションなど、五感をくすぐる様々なコンテンツをぜひ存分にご堪能ください。"
ニジゲンノモリ,〒656-2301 兵庫県淡路市楠本2425-2,34.575825,134.999631,,兵庫県淡路市にある「ニジゲンノモリ」。二次元コンテンツの世界観を体を動かしながら体験できるテーマパークです。最新テクノロジーを使用したアトラクションや、人気アニメの世界に入り込めるコンテンツなどが盛りだくさん！「淡路IC」より車で約3分とアクセスも抜群。ここでしか体験できない二次元体験をぜひお楽しみください♪
神戸市立王子動物園,〒657-0803 兵庫県神戸市灘区王子町3-1,34.71076205,135.21443858154535,http://www.ojizoo.jp/,"神戸市立王子動物園は、神戸市灘区王子町に位置しています。130種類に及ぶ、約800点の世界の動物たちとの出会いが待っています。ジャイアントパンダは特に人気で、その愛らしい様子は訪れる人々の心をつかんで離しません。

また、ウサギやヤギをはじめとした身近な動物と遊びながら触れ合える「動物とこどもの国」が設けられており、子どもから大人まで動物との交流を楽しむことができます。

さらなる興奮を提供するのが、「動物科学資料館」です。ここでは、動物の生態や生活環境、種による違いなど、さまざまな情報が学べます。遊び心あふれる展示が並ぶ館内を散策しながら、動物の不思議や魅力を一層深く理解することができるでしょう。

王子動物園はまた、様々なイベントや教育支援事業も積極的に展開しています。動画では動物たちの日常や思いがけない行動を紹介し、飼育員の視点で楽しい動物たちの生活をお届けします。

園内にはレストラン・ショップも完備され、一日中楽しむことができます。交通アクセスも良好で、公共交通機関を使っても容易に訪れることができます。

神戸市立王子動物園は、動物とのふれあいや学ぶ楽しさを提供する一方で、動物保護の重要性も訴える施設です。訪れた全ての人々にとって、忘れられない体験となることでしょう。"
姫路セントラルパーク,〒679-2121 兵庫県姫路市豊富町神谷1434,34.869976,134.75223207330816,,"サファリパークと遊園地を併設した甲子園球場48個分のテーマパークです。サファリパークでは約190種1,200頭羽もの動物たちとの出会いが楽しめ、遊園地では各種の宙返りコースターからキッズや、グループで楽しめる幅広いアトラクションが満喫できます。また、夏には西日本最大級のリゾートプール、冬には室内アイススケートリンクもオープン。ご家族や友人同士で1年中楽しめるテーマパークとなっています。アクセスは「山陽姫路東IC」から車で約5分。姫路駅からは便利な「姫路セントラルパーク行き」のバスも運行しています。"
グランフロント大阪,〒530-0011 大阪府大阪市北区大深町4-1（うめきた広場）、4-20（南館）、3-1（北館）,34.70372855,135.4947840719397,http://www.grandfront-osaka.jp/,大阪の主要駅である梅田駅の北側、「うめきた」と呼ばれる再開発エリアにある複合商業施設。南館と北館には、ファッション・雑貨・ライフスタイル・カフェ・レストランと、約260店舗が軒を連ねる。中には関西初出店のショップや日本初上陸のレストランもあり、見どころは尽きない。高層階の「インターコンチネンタルホテル大阪」に宿泊すれば、大阪観光をより便利に楽しめる。
琵琶湖,〒520-0022 滋賀県大津市柳が崎5,35.2486461,136.08255752266666,http://www.biwako-visitors.jp/,滋賀県の面積の1/6を占める日本最大・最古の湖。クルージングやボート遊び、湖沿いをゆったり散策したり雄大な自然の中でたくさんのレジャーが楽しめます。1950年国定公園に指定されたのを機に選定された琵琶湖八景の風光明媚な景観は、多くの詩歌や絵画にも表されています。
ひらかたパーク,〒573-0054 大阪府枚方市枚方公園町1-1,34.8061822,135.63889930074637,,ひらかたパークは、地元大阪ではもちろんおなじみの、子どもから大人まで楽しめる歴史の長い遊園地です！遊園地内には約40種類の豊富なアトラクションがあり、お客様の年齢や好みによってお好きな楽しみ方ができます。 また、季節ごとに開催されるイベントでは、夏はプール、冬は雪遊びやスケートなどをご用意しています。 ※内容は時期によって異なりますので予めご確認ください。
嚴島神社,〒739-0588 広島県廿日市市宮島町1-1,34.2965418,132.31900770264502,http://www.itsukushimajinja.jp/index.html,宮島にある、世界遺産に登録された神社。宗像三女神を祀る。平家一門の信仰を集めた。平安期の寝殿造りを神社建築に応用し長い回廊が特徴的である。市杵島姫命、湍津姫命、田心姫命。全建造物は国宝および重要文化財。瀬戸内海の島を背後に、海の中に立つ朱色の大鳥居や木造建物が建ち並ぶ姿は日本でも珍しい。潮が満ちてくると社殿があたかも海に浮かんだように見え圧巻。
出雲大社,〒699-0701 島根県出雲市大社町杵築東195,35.399803,132.68515076061112,http://www.izumooyashiro.or.jp/,伊勢神宮に並ぶ古社。大國さまとして親しまれる大国主命を奉る。縁結びの神・福の神として親しまれる。1744年に建てられた本殿は、日本で最も古い神社建築の形式である大社造りで、国宝に指定されている。参拝方法が「二拝四拍一拝」と一般の神社と異なる。
足立美術館,〒692-0064 島根県安来市古川町320,35.3809067,133.19527459574488,,足立美術館は島根県安来市に所在し、日本庭園や日本画を通して日本の美に触れることができる美術館。アメリカの日本庭園専門誌が毎年実施している、全国の日本庭園約1000か所を対象とした日本庭園ランキングで「連続日本一」に選ばれるほど素晴らしい庭園と、横山大観をはじめとする近代から現代の日本画、北大路魯山人の陶芸、童画などを楽しむことができます。
錦帯橋,〒741-0062 山口県岩国市岩国1丁目,34.1671713,132.1790766,http://kintaikyo.iwakuni-city.net/,"延宝元年（1673）第三代岩国藩主吉川広嘉により創建されたもので、現在の橋は四代目にあたります。

錦川の清流に架かる五連のアーチを描いた木橋で、長さ193.3ｍ幅５ｍ。

木と木の組合せによって支えられ、巻金とかすがいが使われています。"
原爆ドーム,〒730-0051 広島県広島市中区大手町,34.39547255,132.45352567972807,,チェコ人の建築家、ヤン・レツル氏の設計で1915年（大正4年）に開館。かつて市の中心街にあった「広島県産業奨励館」跡。昭和20年8月6日の原爆の実状を伝えるため永久保存されている。1996年（平成8年）にユネスコの世界遺産として登録された。
おもちゃ王国（岡山）,〒706-0153 岡山県玉野市滝1640-1,34.47269815,133.89114754443995,,岡山県玉野市に位置するテーマパーク「おもちゃ王国」では、トミカやプラレール、リカちゃん、シルバニアファミリーなど、大人気のおもちゃが大集結！それぞれのエリアを設け、思う存分おもちゃでエンジョイできます。他にも、まるで遊園地のようなアトラクションもご用意！小さなお子さまももちろんOK◎ぜひご家族皆さんでお越しください。
倉敷美観地区,〒710-0046 岡山県倉敷市中央,34.596525,133.77258633215934,http://kankou-kurashiki.jp/,風にそよぐ柳並木や、白壁となまこ壁が美しいコントラストを見せて倉敷川に影をおとし、伝統的な日本建築の美しさをよく残しているこの一帯は、江戸時代には米の集積地として栄えたところで、町並みから往時をしのぶことができる。世界的名画を集めた大原美術館をはじめ、民藝館、考古館など、文化的施設も多数ある。
角島大橋,山口県下関市豊北町神田〜角島,34.3523565,130.8872501,,海士ヶ瀬（あまがせ）に架かる、山口県下関市と角島を結ぶ橋。長さ1780mで、無料で通行できる橋としては日本で2番目の長さを誇る。角島に向かって一直線に伸びる橋は、多くの人が”一度は訪れたい”と憧れる景勝地。下関市から角島まで車だと3分ほどで渡ることができ、徒歩や自転車での通行も可能。橋のすぐそばには海士ヶ瀬公園があり、展望台からは角島大橋や角島を一望できる。コバルトブルーに輝く海士ヶ瀬と青く澄んだ空とのコントラストは、圧巻の美しさだ。
鳥取砂丘,〒689-0105 鳥取県鳥取市福部町湯山,35.541299699999996,134.22772589726242,,日本最大級の砂丘、鳥取砂丘。雄大な姿は10万年の歳月をかけて生まれました。地形や風などの気象条件によって風紋や砂簾といった様々な表情を見ることができ、珍しい砂丘植物も生息します。鳥取砂丘の自然や生い立ちを紹介する「鳥取砂丘ビジターセンター」もあわせてご利用下さい。　また、近隣に世界初の「砂」を素材にした彫刻作品を展示する「砂の美術館」があり、鳥取砂丘の新名所となっています。
秋芳洞,〒754-0511 山口県美祢市秋芳町秋吉3449-1,34.2280614,131.3034105,,
下関市立しものせき水族館・海響館,〒750-0036 山口県下関市あるかぽーと6番1号,33.95443095,130.9424329160804,http://www.kaikyokan.com/,"総水量2,400トン、65の水槽に魚など500種20,000点の水族たちが展示されている。関門海峡を再現した瀬戸内海水槽はトンネル状で海底散策気分が味わえる。日本唯一のシロナガスクジラの全身骨格標本や、世界のフグ100種類以上など下関らしい展示も特徴。目の前に関門海峡が広がるアクアシアターでは、イルカとアシカの共演によるパフォーマンスが開催される。

イルカの水槽を眺めながらイタリア料理が楽しめるレストラン・デルフィーノもある。"
玉造温泉,〒699-0201 島根県松江市玉湯町玉造，湯町,35.4307482,133.0119199,http://www.tama-onsen.jp/,"松江市の西南約8km、三方を山に囲まれた温泉で、宍道湖に注ぐ玉湯川に沿って旅館が軒をつらねている。近代的なホテルのほか、白木造りの純和風旅館もあり、ツツジを眺めながら、庭の中の露天風呂にゆっくりつかれる宿もある。各旅館は味に力を入れており、コイの姿造り、松葉ガニ、モロゲエビ、スズキなどが名物料理。温泉の東部にある標高199mの花仙山を中心とする丘陵には、良質の青めのうが産出し、現在は青めのうを主体としてみやげものになっている。
日本最古の美肌温泉といわれており、温泉総選挙2016では「環境大臣賞」と「うる肌部門第1位」を獲得。翌年の温泉総選挙2017では「おもてなし特別賞」を受賞。"
大原美術館,〒710-0046 岡山県倉敷市中央1-1-15,34.5960325,133.7704385318915,,大原美術館は、岡山県倉敷市に1930年に開館し、日本で初めて西洋美術を展示した美術館です。本館にはエル・グレコ「受胎告知」のほか、ゴーギャン、セザンヌ、ロートレック、ドガ、ルノワールなどの絵画・彫刻を140点常時展示しています。日本屈指の西洋美術コレクションを誇る大原美術館へ、名画に会いにきてください。
水木しげるロード,〒684-0005 鳥取県境港市松ケ枝町・大正町・本町,35.5461235,133.2289629,http://www.sakaiminato.net,鳥取県境港市出身の水木しげるにちなんで名付けられた駅前商店街。JR「境港」駅から水木しげる記念館まで約800m続く妖怪の道で、道路の両側には177体の妖怪ブロンズ像が並んでいる。通りには「妖怪神社」や「河童の泉」といった観光名所が並び、一帯に不思議な世界が広がっている。日没とともに50種類を超える妖怪たちが影絵となって映し出されるライトアップや、妖怪スタンプを一定数集めると妖怪博士になれるイベントなど、散策を楽しめる工夫が豊富に用意されている。
角島,〒759-5332 山口県下関市豊北町角島,34.3574295,130.86976095991446,,山口県北西端にある、日本海に浮かぶ小さな島。島民からの強い要望により、2000年に島と本州とを結ぶ角島大橋が完成し、アクセスしやすくなった。石造り灯台としては日本で3番目の高さを誇る「角島灯台」や白い砂浜が美しい「しおかぜコバルトブルービーチ」などの観光スポットがある。休憩所「しおかぜの里 角島」の駐車場には、レンタサイクル施設「角島サイクルポート」を併設。コバルトブルーのビーチを眺めながら海沿いをサイクリングできる。
ブラジリアンパーク鷲羽山ハイランド,〒711-0926 岡山県倉敷市下津井吹上303-1,34.44635685,133.79818566781054,,"岡山県倉敷市にある「鷲羽山ハイランド」は、""ブラジル""をテーマにした唯一無二の遊園地です。アトラクションは全15種類。大迫力のコースターをはじめ、瀬戸内海を一望するスカイサイクルや観覧車、海抜200mから急降下するターボドロップやバンジージャンプなど、1日たっぷり楽しめる多彩なアトラクションを完備しています。また、夏季限定のスライダープールや毎日開催されるサンバカーニバルも好評です。アクセスは瀬戸中央自動車道「児島IC」より車で約1分。ぜひ気軽に足をお運びください。"
三朝温泉,〒682-0123 鳥取県東伯郡三朝町三朝 他,35.409673,133.892827,http://www.misasa-navi.jp/,三朝川のほとりに旅館が軒を並べ、世界有数のラジウム温泉として知られる山陰の名湯。古くから湯治場として栄えていたため、観光宿の他、湯治・保養向きの宿もある。温泉は放射能泉、源泉は100カ所近くもあり、湯量も豊富。古くからあらゆる病気に効果の高い温泉として知られる。澄んだ湯で臭いはなく神経痛・リューマチをはじめ、関節炎・胃腸病などに効果があるとされている。
平和記念公園,〒730-0811 広島県広島市中区中島町1および大手町1-10,34.39317145,132.45230080547594,,平和記念公園は、旧太田川（本川）が元安川と分岐する三角州の最上流部に位置し、原爆死没者の慰霊と世界恒久平和を祈念して開設された都市公園です。公園内には、原爆ドーム、広島平和記念資料館、平和の願いを込めて設置された数々のモニュメント、被爆したアオギリなどがあります。
松江城,〒690-0887 島根県松江市殿町1-5,35.475140499999995,133.0507624996942,,
秋吉台,山口県美祢市,34.2341672,131.3060432,,石灰岩柱が立ち並ぶ日本最大級のカルスト台地で、1964年には特別天然記念物に指定された。カルスト台地とは、石灰岩が長い年月をかけ雨水や地下水などで浸食されてできた地形のこと。約10km続くカルストロードがあり、人気のドライブコースとなっている。現地のガイドが同行する「Mine秋吉台ジオツアー」もおすすめ。鍾乳洞を探索や露天堀り見学、絶景スポット巡りなど秋吉台の魅力を余すことなく楽しめる。
吉備津神社,〒701-1341 岡山県岡山市北区吉備津931,34.6706821,133.8506113392704,http://kibitujinja.com/,桃太郎物語のもとになった伝説が残る神社。境内には、鬼退治の矢を置いたとされる「矢置岩」や、鬼の首を埋めたといわれる「御竈殿」がある。1425年（応永32年）に再建された本殿は国宝に指定され、全国で唯一吉備津造りの様式で建てられたことで有名。本殿は京都の八坂神社に次ぐ大きさで、出雲大社の約2倍以上の広さを誇る大建築。伝統的な神事「鳴釜神事」は、釜が鳴る音によって吉凶を占うもので、多くの人に親しまれている。
瀬戸大橋,〒711-0925 岡山県倉敷市下津井田之浦１-1,34.397105999999994,133.81042226853373,http://www.jb-honshi.co.jp,瀬戸内海をまたいで本州と四国を結ぶ長大橋。香川県坂出市と岡山県倉敷市を結ぶ6つの橋と4つの高架橋を総称して呼ぶ。全長9368ｍで、鉄道と道路の併用橋としては世界最長を誇る。坂出市側のたもとに瀬戸大橋記念公園があり、回転展望台「瀬戸大橋タワー」がある。
広島平和記念資料館,〒730-0811 広島県広島市中区中島町1番2号,34.391812099999996,132.4521047834089,,
備中松山城,〒716-0004 岡山県高梁市内山下1,34.8086278,133.6220616683833,http://takahasikanko.or.jp/modules/spot/index.php?content_id=1,"城山の臥牛山は大松山、小松山、天神丸、前山の四峰から成るが、秋庭重信が延応2年（1240）大松山に砦を築いたことに始まります。
現在の「備中松山城」は天和3年（1683）、松山藩主水谷勝宗の手によって完成したものといわれています。
現在は二層二階の天守の他、二重櫓、大手門や櫓の礎石、土塀、高い石垣などが残っています。平成9年本丸の一部が復元されました。天守、二重櫓、土塀の一部が国の重要文化財に指定されています。
現存する天守を持ち、日本一高い場所にある山城であり、秋から春にかけて、早朝のみに見ることができる雲海に浮かぶ姿は幻想的です。"
岡山後楽園,〒703-8257 岡山県岡山市北区後楽園1-5,34.6662589,133.93747829933582,,
島根県立 しまね海洋館,〒697-0004 島根県浜田市久代町1117番地2,34.959171,132.143829,,JR山陰本線波子駅より徒歩10分。島根県浜田市と江津市にまたがる島根県立石見海浜公園内にある島根県立しまね海洋館アクアスは、400種類・1万点の海の生物を展示している中四国最大級の水族館です。同じ敷地内には大型木製遊具ゾーン「アクアスランド」もあり、小さなお子様から大人まで幅広い層にお楽しみいただけます。
石見銀山遺跡,〒694-0305 島根県大田市大森町,35.113757,132.445335,,かつて銀採掘で栄えていた鉱山遺跡。「自然環境と共存した産業遺跡」として高く評価された世界遺産ということもあり、銀山周辺には様々な草花が生息している。鉱山内には銀を採掘するための坑道「間歩（まぶ）」が多数存在し、中でも「龍源寺間歩」は、唯一常時公開されている間歩。最大級の規模を誇る「大久保間歩」は、限定ツアーでのみ公開されている。内部はノミで掘った跡がそのままの状態で残されており、銀採掘の歴史を垣間見られる。
広島城,〒730-0011 広島県広島市中区基町21-1,34.4027148,132.459033,http://www.rijo-castle.jp,広島市中区にある毛利輝元が築いた城。国の史跡に指定されている。築城されたのは1589年。その後他の武将や大名に引き継がれた。天守閣は国宝にも指定されたていたが、原爆によって倒壊。1958年、戦後の広島復興のシンボルとして外観が復元された。現在、天守閣内部は歴史博物館として武家文化の形跡が分かる資料や模型などを展示。また二の丸付近で安芸ひろしま武将隊の演舞が披露されることもあり、観光客に人気だ。展望室からは原爆ドームが見える。
岡山城天守,〒700-0823 岡山県岡山市北区丸の内2-3-1,34.6640933,133.9358447,,
大塚国際美術館,〒772-0053 徳島県鳴門市鳴門町土佐泊浦字福池65-1（鳴門公園内）,34.23257945,134.63753692402503,http://www.o-museum.or.jp/,世界の名画を陶板画で再現した美術館。常設展示1074点は日本最大のスペースを誇り、世界25カ国190余りの名画の陶板画が原寸大で飾られている。中でもピカソの「ゲルニカ」やシスティーナ礼拝堂の壁画などは圧巻の一言だ。陶板の名画は約2000年以上も退色劣化を免れるので、文化財の保存の形でも貢献している。レストランも併設。
道後温泉,〒790-0842 愛媛県松山市道後湯之町5-6,33.8504225,132.7850502,http://dogo.jp,夏目漱石の小説「坊ちゃん」の舞台として、また時を知らせる太鼓楼 振鷺閣のある温泉として、全国に知られる。温泉の歴史は古く、「伊予ノ湯」「熟田津ノ湯」と呼ばれ、「日本書紀」「万葉集」「源氏物語」などにも名湯として登場する。◎道後温泉本館　道後温泉のシンボルとして存在。明治２７年に建築された三層楼のどっしりしたもので、平成６年１２月国の重要文化財に指定された。近代的なホテルや商店街の中にあって、ひときわ風格ある姿を誇っている。　周囲のホテル・旅館に泊っても、手ぬぐい片手にわざわざ入りにくる観光客が多い。ここには毎朝一番風呂に入ろうと、時を告げる太鼓の音を待ち構えている地元の人の伊予なまりを聞きながら、のんびりお湯に浸るのも、旅情が感じられていいもの。入浴コースには4種類あるが、神の湯２階席は55畳の大広間に案内され、ゆかたを貸してくれ、湯上がりには炭火で沸かしたお茶が、天目茶碗にのせられた砥部焼きの湯飲みで出てくる。また、皇室専用の浴室又新殿や、夏目漱石ゆかりの「坊っちゃんの間」の見学ができる。6:00〜23:00（札止め22:30）入浴コースによって異なる。また道後温泉放生園は明治24年から昭和29年まで、道後温泉本館で使用されていた湯釜から流れるこのお湯で、その昔、一羽の白鷲が足を癒したという伝説がある。「足湯」には、血行を良くし、疲れを癒すなど健康増進の効果がある。年末に掃除のため1日のみの臨時休館。tel(089)921-5141。無休。道後温泉駅から徒歩5分。ミシュラン観光ガイド３ツ星獲得施設。◎椿の湯　玄関前の柳並木が風流な外湯。館内は明るく広く、子供用の小さな湯船も併設する。またジュースなどの自動販売機や休憩室も完備している。6:30〜23:00（札止め22：30）。年末は掃除のため1日のみ臨時休館。ＴＥＬ（089）935-6586。
松山城,〒790-0004 愛媛県松山市丸之内,33.845651,132.7657463,http://www.matsuyamajo.jp,"松山城は、四国最大の城郭として知られ、その壮大な姿は日本全国から観光客を引きつけます。松山市の中心部に位置する標高132mの城山（勝山）山頂からは、どの角度から見ても美しい景観を楽しむことが可能です。

城郭建築としても見どころが多く、21棟の国の重要文化財が点在しているほか、全国で現存する12天守のうち松山城も一つであり、貴重なスポットとなっています。また、彦根城と松山城のみに見られる「登り石垣」や日本で唯一の櫓、野原櫓が存在し、それぞれが城郭の歴史を物語っています。

松山市内からのロープウェイやリフトがあり、手軽に訪れることができるのも魅力の一つです。四つの登城道があり、歩いて上ることも可能。登城道を利用すれば、石畳や石垣など、古代の雰囲気を存分に味わうことができます。

バリアフリーの対応も進んでいて、体の不自由な方でも安心して訪れることができます。さらに、イベントも多く開催されており、普段の観光だけでなく、特別な日に訪れる楽しみもあります。

松山城は、その歴史と風景、文化財保護の姿勢が詰まっています。"
栗林公園,〒760-0073 香川県高松市栗林町一丁目20-16,34.32949705,134.04392638669896,https://www.my-kagawa.jp/ritsuringarden,桜、菖蒲、萩、梅と四季折々の花の名所が点在する。大名庭園で三大名園にも劣らないと言われている。特に、紫雲山を借景にした広大な回遊式日本庭園で日本式の南庭と開放的な明治洋風の北庭に分かれている。６つの池と１３の築山があり、黒マツを中心に草木も豊か。四方正面の珍しい茶室掬月亭や、南湖に架かる偃月橋からの眺めは絶品。
高知城,〒780-0850 高知県高知市丸ノ内1-2-1,33.560691,133.53145880847023,http://kochipark.jp/kochijyo/,高知県高知市にある城で、「日本100名城」にも選定されている。1601年に土佐藩の初代藩主「山内一豊（やまうちかつとよ）」が築城を命じ、1611年に完成した。見どころは現存する天守と御殿。廃城令や太平洋戦争といった難を逃れ、江戸時代の姿で現存する建物は15棟が存在。廊下門・追手門と名所が多く、いずれも重要文化財に指定されている。敵を追い返すための忍び返しなど、城を守る工夫も面白い。天守からは高知市の街並みを一望できる。
桂浜,〒781-0262 高知県高知市浦戸6,33.497155250000006,133.57440791591443,,高知市浦戸半島の先端に位置し、竜王岬と竜頭岬の間に広がる砂浜。高知県を代表する景勝地で「月の名所は桂浜」と、よさこい節で唄われる。五色の砂浜、浜辺を囲む青松が美しい。桂浜水族館、坂本龍馬記念館、坂本龍馬像などがある。
四国水族館,〒769-0201 香川県綾歌郡宇多津町浜一番丁4,34.3123308,133.8077902236344,,四国の玄関口・香川県宇多津町に位置する「四国水族館」。鳴門のうずしおなど「四国水景」を再現した展示をはじめ、アシカやペンギンたちと出会えるエリア、瀬戸内海の絶景をバックにしたイルカプールなどで存分に楽しめます。「宇多津駅」から徒歩約12分、「高松空港」から車で約40分と好アクセス！四国観光の際にはぜひお越しください。
龍河洞,〒782-0005 高知県香美市土佐山田町逆川,33.603136,133.745216,http://www.ryugadou.or.jp,"高知県に位置する龍河洞は、幻想的な世界が広がる鍾乳洞として広く知られています。その洞窟は、弥生時代の穴居生活の跡が見られるなど、歴史と自然が深く結びついており、世界的にも珍しい石灰華に包まれた弥生式土器の存在は学術的価値が非常に高いと言えます。

また、龍河洞にはさまざまなエンターテイメントが存在します。最近開放された冒険コースでは、狭い道を這って進んだり、丸木の梯子を登ったりといったダイナミックな体験が楽しめます。多彩なアクティビティを楽しんだ後は、施設内に点在するショップやレストランでくつろぐことができます。カフェで一息ついたり、地元の商人が運営する店舗でオリジナルの商品を見つけることも可能です。

さらに、Cavigatorという多言語対応の音声ガイドアプリも用意されています。英語、韓国語、中国語、台湾語に対応したこのアプリを使えば、より深く龍河洞を理解することができるでしょう。

幻想的な自然の中に歴史とエンターテイメントが融合した龍河洞は、家族旅行からカップルのデートにまで幅広いニーズに応えてくれます。鍾乳洞を訪れた時の感動と驚き、そこで過ごす非日常的なひと時は、きっとあなたの心に深く刻まれることでしょう。"
愛媛県立とべ動物園,〒791-2191 愛媛県伊予郡砥部町上原町240,33.7623666,132.7928050576151,http://www.tobezoo.com/index.html,砥部焼で知られる砥部町にある動物園。敷地は11ha。園内には、約160種780点の動物がいて、ゾウストリートなど10エリアで構成されている。全国的にも有名なホッキョクグマ「ピース」がいるベアストリートは必見だ。展示は行動学に基づいているほか、パノラマ展示による立体感あふれる風景や誘導方式による「動物の国世界一周」など工夫が凝らされている。また「ペンギンのお食事タイム」、夜の動物園などイベントも多彩だ。
瀬戸内しまなみ海道,〒794-0072 愛媛県今治市山路,34.2580117,133.0555258,,愛媛県今治市と広島県尾道市を結ぶ約60kmの西瀬戸自動車道の愛称。日本のエーゲ海とも称えられる美しい瀬戸内海に浮かぶ島には、個性的な9本の橋が架けられている。各橋には、自転車歩行者専用道路が設置されていてウォーキングやサイクリングを楽しむことができる。
丸亀城,〒763-0025 香川県丸亀市一番丁,36.9173932,140.7980899,http://www.city.marugame.lg.jp/sightseeing/spot/01.html,白鳥が遊ぶ内堀から積み重ねられた石垣は、高さ60mを超えて日本一といわれる。扇の勾配と呼ばれ、ゆるい曲線を描いて美しい。その上に木造の天守がそびえる。1660年（万治3年）に建てられた3階3層で、千鳥破風、唐破風もちょっぴり。瀬戸大橋一帯を見渡せる。日本城郭協会より日本百名城に選定される。◎生駒親正（1526-1603）美濃生れ。武将。織田・豊臣に仕え、賎ヶ岳・小牧山の戦などで軍功を挙げ、近江高島田、伊勢神戸、三田城主、赤穂城主を経て讃岐高松城を築城、城主となる。◎山崎家治（1594-1648）対馬生れ。武将。江戸幕府の命により、西讃岐統治のため丸亀城に移封される。築城の名手で、三原・松山・大坂城など修築。◎京極高和（1619-1662）播州竜野から西讃岐に移封され、丸亀藩京極家初代藩主となる。京極家は近江源氏佐々木信綱の子氏信より続く。
エンジェルロード,〒761-4106 香川県小豆郡土庄町銀波浦,34.4776107,134.1886468,,一日二回、潮の満ち干きで4つの島をつなぐ道が現れたり消えたりする人気のスポットです。引き潮の時には余島まで渡ることが出来ます。いつからか「大切な人と手をつないで渡ると、願いが叶う」というロマンチックな場所です。
桂浜水族館,〒781-0262 高知県高知市浦戸778,33.4972686,133.57365304206684,http://www.katurahama-aq.jp/,桂浜公園の浜辺にある小さな水族館。1931年創立と長い歴史があり、高知県民に親しまれる桂浜のシンボル的存在。カピバラやペンギン、アシカ、オットセイ、コツメカワウソなど、約220種4000匹もの水棲生物を飼育している。見て・触れて・楽しむをテーマにした体験型展示スペースが多数点在。アシカショ－、ドクターフィッシュ体験、ウミガメのエサやり、カクレクマノミとの触れ合いイベントと、豊富な体験プログラムに参加できる。
四国カルスト,〒791-1802 愛媛県上浮穴郡久万高原町西谷,33.466859,132.956701,,愛媛県と高知県の県境に広がる石灰岩の高原で、姫鶴平、五段高原、天狗高原、大野ヶ原から構成されているカルスト台地。エリアごとに見どころがあるが、おすすめはキャンプ場の設備や、牛が草を食む牧歌的な風景が魅力の姫鶴平、紅葉やスキーが楽しめ、遊歩道もあり散策におすすめの天狗高原。また五段高原の「森の巨人たち百選」に選ばれている樹齢約600年の「猪伏（いぶし）の大トチ」も寄ってみたいスポット。気軽に巡るならレンタサイクルが便利だ。
タオル美術館,〒799-1607 愛媛県今治市朝倉上甲2930,33.9696759,133.033090562093,http://www.towelmuseum.com/,世界初のタオル文化を提案する施設。タオルの製造工程を見学できるコットンロード、目を見張るタオルアートの数々や豊富な品揃えのタオルコレクションショップなど楽しい仕掛けがたくさんある。広大なヨーロピアンガーデンや、館内のレストラン、カフェも好評。4F・5Fのギャラリー棟のみ有料。
直島諸島,〒761-3110 香川県香川郡直島町,34.508637050000004,126.16557820156262,http://www.town.naoshima.lg.jp/,"瀬戸内海の香川県高松市の北約13km、岡山県玉野市の南約3kmに位置する直島を中心とした、大小27の島々から構成される諸島です。
備讃瀬戸に広がる多島美を望みながら、島ならではの自然や文化を感じることができます。"
四万十川,〒787-0000 高知県四万十市中村,33.2457477,133.13872,http://www.shimanto-kankou.com,高知県西部を流れる四国最長の川。全長約196kmの一級河川で、日本最後の清流として知られる。源流域には、四国カルスト・天狗高原・四万十源流の森など、豊かな自然と景勝に恵まれた観光名所が点在。川沿いには多くのレンタサイクルターミナルがあり、絶景スポットを回りながら自転車旅を堪能できる。遊覧船で四万十川を巡る「四万十川観光遊覧船」や、カヌー・シュノーケリングなどのアクティビティが人気。天然あゆ・中村の塩たたき・四万十牛といったご当地グルメも豊富だ。
金刀比羅宮,〒766-8501 香川県仲多度郡琴平町892,34.1839885,133.80938974544424,http://www.konpira.or.jp,象頭山にあり祭神は大物主命と崇徳上皇をあわせ祀る，海の守護神として崇敬を集め参詣者が多い。建物は何度か改築、増築、改修、再建を繰り返して現在の形状になっている。古くから「さぬきのこんぴらさん」として親しまれている海の神様。参道の石段は本宮まで785段、奥社までの合計は1368段にも及ぶ。広い境内には由緒ある御社や御堂が点在し、宝物館や書院には第一級の美術品や文化財が陳列する。参道両脇には土産物や讃岐名物のうどん店、周辺も旧金毘羅大芝居（金丸座）や高灯籠など見どころが多い。
仁淀川,高知県吾川郡いの町,33.5040439,133.4401357,https://www.inofan.jp/,愛媛県と高知県に流れる川。長さ124kmの一級河川で、愛媛県側では面河川（おもごがわ）と呼ばれている。全国に16本ある水質が最も良好な河川のひとつで、「仁淀ブルー」と呼ばれるほどの青く透き通った清流が特徴的。川沿いの渓谷には、神秘的な滝壺「にこ淵」や、龍が飛び立つ姿に見える「飛龍の滝」など多くの絶景スポットが点在。中流域にある光る森こと「横倉山」では、光るキノコや無数のホタルを鑑賞できる。ラフティングやSUPといったアクティビティも人気が高い。
柏島,〒788-0302 高知県幡多郡大月町柏島,35.4468773,132.6830421,http://www.town.otsuki.kochi.jp/,足摺宇和海国立公園に指定される高知県の島。地中海を彷彿とさせるエメラルドグリーンに輝く海が特徴で、磯釣りや海水浴といったマリンレジャーが豊富に揃う。透明度は最大で40mともいわれ、美しいサンゴの群生を見られる世界有数のダイビングスポットとして知られている。鯛を使った料理が人気で、漁師料理を堪能できる店が多い。「道の駅 大月」では、道の駅内の市場で購入した魚介類を2階のレストランで定食にして食べられる。
剣山,徳島県美馬市木屋平・三好市東祖谷・那賀町木沢,33.8535794,134.0942858,http://turugisan.com/,標高１９５５ｍ、石鎚山に次ぐ西日本第2の高峰。登山口から登山道の中央付近まではリフトが設置されており、日本百名山の中でも非常に登りやすい山とされていることから、シーズンを通じて登山を楽しむ人々でにぎわっている。原始林が姿を残し、高山植物の群生地もあって四季折々の変化が楽しめるほか、古くから山岳信仰の霊峰としても知られ周辺には1800m級の山々が並ぶ。
大山祇神社,〒794-1393 愛媛県今治市大三島町宮浦3327,34.24813975,133.00530573030687,,愛媛県の大三島（おおみしま）に鎮座する神社。県内最古の神社で、全国に1万社ほどある山祇神社（やまづみじんじゃ）と三島神社の総本社といわれている。海の神、山の神、武人の神として信仰され、武将から戦勝祈願として納められた武具は現在境内の宝物館で展示されている。日本最古の平安中期の鎧も収蔵。室町初期に再建されたといわれる本殿、拝殿は国の重要文化財だ。境内にある宝篋印塔（ほうきょういんとう）も国の重要文化財に指定されている。
屋島,〒761-0111 香川県高松市屋島　東町,34.3366591,134.1099099,,高松市の東に位置する。典型的メサ台地。標高２９３ｍの屋根型をなし、南北二嶺に分かれ、相引川により、分離し島の面影を残す。瀬戸内海国立公園に指定されている景勝地で、多島美が素晴らしい。宿泊施設2軒有。
今治城,〒794-0036 愛媛県今治市通町3-1-3,34.0633765,133.0068513,http://museum.city.imabari.ehime.jp/imabarijo/,"慶長9年(1604年)に城づくりの名人・藤堂高虎が築いた城。全国的にもまれな海水を堀に引き入れた海城で、昭和55年に再建された5層6階の天守閣は展望台、展示室になっており、武具、甲冑、刀剣など2,500点を常設している。　平成16年に築城・開城400年を記念して高虎公の銅像が建立され、平成19年には鉄御門（くろがねごもん）が再建された。"
はりまや橋,〒780-0822 高知県高知市はりまや町1丁目,33.5596002,133.5423649,,橋の袂の小間物屋で坊さんがカンザシを買ったことで有名になった。その後何度か橋は架けかえられ、堀川も埋め立てられた。現在は、はりまや橋公園として整備され、川のせせらぎを再現。純信・お馬のモニュメントが設置されている。
とくしま動物園　北島建設の森,〒771-4267 徳島県徳島市方上町・渋野町,34.018723,134.53067,http://www.city.tokushima.tokushima.jp/zoo/,徳島市方丈町から渋野町にまたがる総合公園。敷地内には動物園をはじめ植物園、遊園地が一体化。動物園センター、温帯区、熱帯区、サバンナ区、寒帯区、こども動物園の6つのエリアからなり、サバンナ区にはレストランがある。隣接する寒帯区には、動物園のシンボルマーク、空を飛ぶ鳥類の中で一番大きいといわれるアンデスコンドルが飼育されている。植物園には徳島県の自然を勉強できる林間体験ゾーン、遊園地には観覧車やゴンドラなどがある。
総本山善通寺,〒765-8506 香川県善通寺市善通寺町三丁目3-1,35.0073429,135.7674916,http://www.zentsuji.com/,四国霊場八十八ヶ所霊場75番札所。弘法大師の誕生地である香川県善通寺市にある寺院。高野山の金剛峯寺、京都の東寺とともに、大師三大霊蹟のひとつ。唐から帰朝した弘法大師が先祖の菩提を弔うため、807年から6年の歳月をかけて建立した真言宗最初の根本道場である。境内は、東院と西院に分かれ、四季を通じて参拝客が絶えない。東院は伽藍、西院は誕生院と呼ばれており、西院の御影堂の床下には全く光のない中を歩いて弘法大師誕生の聖地をお詣りする戒壇めぐりがある。
石鎚山,愛媛県西条市,33.7677546,133.1150799,http://www.ishizuchi.com/,四国山地西部に位置し、昔から山岳信仰の山として知られる日本七霊山のひとつだ。登山コースは、西条市から石鎚登山ロープウェイを利用する初心者向けのコースや、ロッククライミングができる壁がある上級者向のコースがあり、登山経験に合わせて選べる。登山道には、暖帯林や亜寒帯林といった変化に富んだ森林が広がり、眺めながら歩けるのも楽しい。山頂からは、瀬戸内海や土佐湾のほか、天気が良ければ中国山地や九州山地まで見渡せる。
ハウステンボス,〒859-3292 長崎県佐世保市ハウステンボス町1-1,33.0862043,129.78831483344533,,長崎のテーマパーク「ハウステンボス」は、モナコ公国と同じ広さの”街”です。四季の花が咲き誇り、一年を通してイルミネーションが華やかな街の中、目いっぱい遊ぶことも、ゆっくりと宿泊することもできます。各種イベントや花火も年中開催、グルメも本格派からファストフード、ご当地グルメまで充実のラインナップ！ぜひお越しください。
やまさの軍艦島上陸周遊クルーズ・長崎みなとめぐり遊覧船（世界文化遺産ヘリテージクルーズ）,〒850-0035 長崎県長崎市元船町17-3長崎港ターミナル1階7番切符売場,32.746986,129.867889,,やまさの軍艦島上陸周遊クルーズ・長崎みなとめぐり遊覧船（世界文化遺産ヘリテージクルーズ）では、2009年4月22日に上陸解禁となった軍艦島への上陸周遊クルーズなどを運営。安全性、堪航能力を考慮し、参加するみなさまに安心で安全なクルージングをご提供しています。歴史や当時の生活を感じられるクルージングで、ゆったりじっくり長崎観光をたのしみませんか。
熊本城,〒860-0002 熊本県熊本市中央区本丸1-1,32.805269100000004,130.7054642204054,https://kumamoto-guide.jp/kumamoto-castle/,銀杏城の愛称で親しまれている熊本城は、加藤清正が慶長5年（1600）の関ヶ原の戦い後、7年の歳月をかけて同12年（1607）に完成した城である。城域は東西1.6ｋｍ、南北1.2ｋｍ、周囲5.3ｋｍ、城域約76万平方ｍ。北から西へは坪井川を引いて堀とし、東と南は数層の石垣をめぐらし、その複雑で堅固な構造は、清正の実戦体験から生み出されたものといわれている。
桜島,〒891-1412 鹿児島県鹿児島市桜島　二俣町,31.5805744,130.657984,,鹿児島のシンボルといわれる桜島は、北岳・中岳・南岳と３個のコニーデ式火山が相接している複合活火山で、古代から噴火の記録が数多く残っている。最近の大きな噴火は大正３年のもので、この時に大隅半島と陸つづきになっている。
ハーモニーランド,〒879-1598 大分県速見郡日出町大字藤原5933番地,33.400591649999996,131.54610470528377,,「ハーモニーランド」は、大分県日出町にある屋外型のサンリオテーマパークです。サンリオのかわいいキャラクターたちが皆様をおでむかえ致しますよ！園内の至るところには、季節ごとに変わるフォトスポットがあり写真撮影にピッタリ！隅々までサンリオの世界が広がるテーマパークで、とっておきの1日をお過ごしくださいね♪
黒川温泉,〒869-2402 熊本県阿蘇郡南小国町大字満願寺黒川,33.0777131,131.1419381,http://www.kurokawaonsen.or.jp,南小国からくじゅう山麓、瀬の本高原へと向う道すがら、田ノ原川に沿った静かなたたずまいの温泉。硫黄泉イ湯は切り傷に特効がある。温泉街の中央に共同浴場の薬師湯があり、それを囲むように風情ある旅館が並んでいる。
高千穂峡,〒882-1101 宮崎県西臼杵郡高千穂町三田井御塩井,32.7017851,131.300939,,阿蘇の熔岩が浸蝕されてできた峡谷で、高いところで100m、平均80mの断崖が7kmも続いている。峡谷には、日本の滝百選に選ばれている真名井の滝などがあり、新緑と紅葉の頃は特に美しい。貸ボートもあり、ボートから見上げる景観も素晴らしいものです。
鵜戸神宮,〒887-0101 宮崎県日南市大字宮浦3232,31.6489475,131.466257,,太平洋に突き出した鵜戸崎（うどざき）岬の断崖絶壁に建つ国指定名勝の神社。地元民の間では「鵜戸さん」の愛称で親しまれている。崖沿いの石段を下った先の洞窟には、鮮やかな朱塗りが美しい本殿が鎮座。「運玉投げ」が有名で、本殿前の崖下にある岩の窪みに投げた運玉が入ると願いが叶うのだそう。運玉は本殿横で5個100円で購入できる。縁結び・安産祈願・夫婦円満にご利益がある神社として、人気のパワースポットとなっている。
吉野ヶ里歴史公園,〒842-0035 佐賀県神埼郡吉野ヶ里町田手1843,33.3270916,130.384263655839,http://www.yoshinogari.jp/,"映像施設やレストランがある歴史公園センターを中心とした「入口ゾーン」、階層の高い人たちが暮らしていたといわれる南内郭や「クニ」のまつりごとをつかさどった所といわれる北内郭からなる「環壕集落ゾーン」、約20ヘクタールの広さがあり、さまざまなレクリエーションが楽しめる「古代の原ゾーン」の3つのエリアからできています。
また新たに、弥生時代当時の森を再現し森と人との関わりや自然界における森の役割などを楽しく学べる場としての「古代の森ゾーン」が開設いたしました。"
太宰府天満宮,〒818-0117 福岡県太宰府市宰府4-7-1,33.5214765,130.5348339,http://www.dazaifutenmangu.or.jp,大宰権帥として大宰府に左遷され、この地で亡くなった菅原道真をまつる。学問の神として有名である。本殿はその墓所の上に建立され、現在の本殿（重要文化財）は1591年の再建である。広い境内ではクス、梅、花しょうぶが四季折々の香りを漂わせる。正月にはうそ替え・鬼すべ、春には曲水の宴、また秋には神幸式などの神事・祭事が執り行われる。
霧島神宮,〒899-4201 鹿児島県霧島市霧島田口2608-5,31.818656,130.8365659,http://www.kirishimajingu.or.jp/,霧島町中央部。神代の創建という古社。噴火によって何度か移転されている。老杉が茂り荘厳な雰囲気。6 世紀に造られ、ニニギノミコトを祀っている。天照大神は孫であるニニギノミコトにこの国を治めよと命令した。ニニギノミコトは三種の神器を譲り受け、7 人のお供の神と１ 人の道案内の神と共に高千穂の峰に降りたという天孫降臨の神話に由来する。
マリンワールド海の中道,〒811-0321 福岡県福岡市東区西戸崎18-28,33.661407,130.36335,,福岡市東区にある「マリンワールド海の中道」は、“九州の海”をテーマに約350種類・3万匹の生物を展示する水族館です。2017年4月に全館リニューアルオープンを果たし、より九州の海に寄り添った水族館へと生まれ変わりました。館内には「玄界灘水槽」や「九州の深海」など、九州各県の海を再現した水槽が勢ぞろいしています。また、大迫力のイルカ・アシカショーや、「イワシタイフーン」が見られる外洋大水槽ショーなど、各種ショープログラムも充実です。新しくなったマリンワールド海の中道を、ぜひ存分にお楽しみください。
博多駅,〒812-0012 福岡県福岡市博多区博多駅中央街1-1,33.5895725,130.42108450977403,https://www.jrhakatacity.com/,JR九州最大級の駅。福岡空港や博多港、高速道路にも近いことから、陸・海・空をつなぐターミナルとして多くの人に利用されている。駅に併設されている商業施設「JR博多シティ」はアミュプラザ博多など6つの施設からなり、約300店が入っている。おすすめは、国内最大級のレストランフロア「シティダイニングくうてん」と、鉄道神社や展望台がある屋上つばめの杜ひろば。福岡名産のみやげものの品ぞろえが充実している。
べっぷ地獄めぐり,〒874-0045 大分県別府市鉄輪559-1,33.3158188,131.4697444,,
嬉野温泉,〒843-0301 佐賀県嬉野市嬉野町　大字下宿乙,33.1066719,129.9989438,http://kankou.spa-u.net/,茶畑に囲まれた田園情緒豊かな温泉である。長崎自動車道開通後は団体客はもとより，小グループや家族連れによる利用客も多くなっている。表通りから嬉野川側に入ると旅館が立ち並び，しっとりとした落ち着きもある。
大濠公園,〒810-0051 福岡県福岡市中央区大濠公園,33.5861263,130.3763271,http://www.ohorikouen.jp/,草香江と呼ばれる入江を、黒田長政が福岡城を築造する際に、外濠として利用したものを、昭和４年３月に現在の公園に造成したもので、園内には築山林泉廻遊式の日本庭園があり、３，０００本のツツジと水面に映る青柳・橋で結ばれた中の島とボート等がよく調和し、緑が多く、珍しい野鳥が生息しているため、バードウォッチングや散策に適している。　一周２ｋｍの周遊道はいつもジョギングの姿が絶えない。
阿蘇ファームランド,〒869-1404 熊本県阿蘇郡南阿蘇村河陽,32.897308699999996,131.00374123345193,http://www.asofarmland.co.jp/,健康の専門家が監修する世界で唯一の大自然健康テーマパーク。癒・泊・栽・食・買の5つのテーマに別れており、それぞれのエリアで健康にまつわるアトラクションや、食事・買い物、癒しの宿泊体験などを楽しめる。ジェルキャンドル作りなどの工作に没頭できる「手作り体験館」や、心地よい音色を聴きながら五感を癒せる「オキシゲンドーム」、10種類の健康チェック装置を利用できる「健康パビリオン」など、個性豊かな健康スポットを巡れる。
別府温泉,〒874-0920 大分県別府市北浜ほか,43.76502415,141.96606094936584,,別府温泉郷の中心の温泉観光地。市街地の海岸通りと流川通りの周辺にホテル旅館街がある。流川通りには銀天街などの繁華街がにぎわいを見せている。市営の共同浴場・竹瓦温泉は、唐破風造りの趣きがあり、古くから砂湯（温泉で温められた砂を体にかけてもらう)で知られている。
大観峰,〒930-1406 富山県中新川郡立山町芦峅寺字ブナ坂外11国有林,36.5695097,137.6318301,https://www.alpen-route.com/index.php,阿蘇外輪山の最高峰で標高は936m。1922年5月に小島内牧町長の要請で、文豪・徳富蘇峰が大観峰と名付けた。阿蘇の街並みやくじゅう連峰まで見渡す360度の大パノラマを楽しめるビュースポットで、ここから見える「阿蘇五岳」は、お釈迦様の寝姿に見えることから通称「涅槃像（ねはんぶつ）」とも呼ばれている。秋から冬にかけては神秘的な雲海を見るチャンスもある。付近にはお土産店や食事処が充実していて、登山休憩にも最適の場所だ。
宇佐神宮,〒872-0102 大分県宇佐市南宇佐2859,33.52543285,131.37519918120364,,大分県宇佐市にある神社で、創設から1200年以上の歴史を持つ。全国に約4万社ある八幡宮の総本社。文武や出世開運の神で知られる応神天皇を祀る同神社はパワースポットとして知られ、厄除け・開運・金運アップなどのご利益がある。宇佐神宮のお土産探しなら、表参道商店街でしか購入できない「宇佐飴」がおすすめ。応神天皇が母乳の代わりに宇佐飴で育ったと言い伝えられている。素朴な甘さとキャラメルのような食感が特徴的な一品。
知覧特攻平和会館,〒897-0302 鹿児島県南九州市知覧町郡17881,31.363701499999998,130.43443254219034,,太平洋戦争末期に特攻隊の基地があった知覧にある史料館。第二次世界大戦末期の沖縄戦で行われた特攻の歴史や、陸軍特別攻撃隊員たちの遺品、その他の関連資料を展示している。写真・遺書・日の丸寄せ書き・絶筆のほか、戦闘機の復元模型なども展示されている。戦時中の貴重な資料が数多く現存しており、国内だけでなく外国から平和学習に訪れる人たちも多い。語り部による歴史解説も行われ、当時の悲惨な状況を知ることができる。
城島高原パーク,〒874-8666 大分県別府市城島高原123番地,33.26448695,131.42685599847457,,大分県別府市の高原リゾート内にあるテーマパーク「城島高原パーク」。スリル満点な絶叫系アトラクションや、まったり楽しめるほのぼの系、デジタル技術を駆使した屋内型アトラクションなど、アトラクションは全部で30種類以上！シーズンイベントやヒーローショーなど、コンテンツも盛りだくさんです。ご家族やグループで、ぜひ遊びにいらしてください。
福岡タワー,〒814-0001 福岡県福岡市早良区百道浜2丁目3番26号,33.5932744,130.35148617170822,,福岡市早良区にある「福岡タワー」は、全長234mの海浜タワーです。地上123ｍにある最上階の展望室からは、福岡の街並みや博多湾などの景色を360度のパノラマで一望できます。スカイカフェやレストラン、土産ショップも完備しており、季節や期間限定で様々なイベントも開催しています。福岡観光やデートにおすすめの観光名所です。
大分マリーンパレス水族館 「うみたまご」,〒870-0802 大分県大分市大字神崎字ウト3078番地の22,33.250095,131.554642,,"大分マリーンパレス水族館「うみたまご」は、""動物となかよくなる""をテーマにした別府湾沿いの水族館です。館内には豊後水道の魚類や大きな海獣など、さまざまな海の生きものたちが生息しています。約90種1,500匹が展示されている「大回遊水槽」をはじめ、イルカやセイウチによるパフォーマンス、タッチプールやサンゴ大水槽など、楽しみ盛りだくさん！また、泳ぐイルカやアート型遊具で遊べる新感覚ビーチ「あそびーち」も好評です。ご家族やご友人同士での思い出作りに、ぜひ気軽に足をお運びください。"
アミュプラザ長崎,〒850-0058 長崎県長崎市尾上町1-1,32.7518702,129.87095332919003,https://amu-n.co.jp/,JR長崎駅に直結s、ファッション・雑貨・コスメ・お土産などのショップが充実している多機能ショッピングセンター。4階は映画館やゲームセンターが入ったエンタテインメントフロア、5階はレストランフロア、6階から10階は「JR九州ホテル長崎」となっている。写真展やワークショップなどのイベントを随時開催しているほか、人気スイーツ・注目ブランドの期間限定ショップもオープンしている。
眼鏡橋,〒850-0874 長崎県長崎市魚の町,32.7470957,129.8802014,,興福寺の黙子如定（もくす にょじょう）禅師により、1634年に架設された、現存する最古のアーチ型石橋のひとつ。「日本橋」「錦帯橋」と並ぶ日本三名橋として知られる。川面に映る様子が、眼鏡のように見えることから「眼鏡橋」といわれるようになった。1982年の長崎大水害で一部崩壊したが、翌年には復元。現在は国の重要文化財に指定されている。中島川護岸には「ハートストーン」があり、恋愛成就のパワースポットとして密かに人気を集めている。
青島,〒889-2164 宮崎県宮崎市折生迫,36.0637967,120.3192081,,島全体がパワースポットといわれる周囲1.5kmほどの小さな島。島一帯が波で削られてできた波状岩に囲まれている。波打つ岩の凹凸が巨大な洗濯板に見える「鬼の洗濯板」が名所。温暖な気候で年間通して雨量が多いことから、200種類以上の植物が自生。「青島亜熱帯性植物群落」として、国指定特別天然記念物に指定されている。島の中央にはある「青島神社」は縁結びにご利益があることで有名。海沿いには南国の雰囲気漂う「青島ビーチパーク」があり、夏は多くの観光客で賑わう。
都井岬,〒888-0221 宮崎県串間市大字大納（都井岬）,31.3670127,131.3417673,https://kushima-city.jp/,天然記念物野生馬の棲息地。約300年前秋月藩主が放牧したのが始まり。先端には白亜の燈台がそびえ，大隅半島まで見渡せる。燈台の近くには天然記念物のソテツが群生しており，6月から9月にかけて，名物の”観光とび魚すくい”でにぎわう。8月第4の金・土には「柱松」という火まつりが行われる。
長崎バイオパーク,〒851-3302 長崎県西海市西彼町中山郷2291-1,32.9881943,129.783301,,「長崎バイオパーク」は、長崎県西海市に位置する動植物園です。動物たちを見て観察するだけでなく、触ったりエサをあげたりしてコミュニケーションをとることができます。キツネザルやリスザル、カピバラ、さらにはカバやバクといった大型の動物たちとのふれあいは、非日常の喜びと感動を与えてくれるでしょう。ぜひお越しください◎
首里城公園 有料区域,〒903-0815 沖縄県那覇市首里金城町1-2,26.2171168,127.7187897,,"世界遺産に登録されている、首里城正殿基壇遺構は火災後の今だからこそ見ることのできる貴重な文化財です。
また、火災の影響を受けた正殿石階段や欄干、正殿屋根に設置していた龍頭棟飾（りゅうとうむなかざり）の
鉄骨や破片などの残存物のほか、「復興展示室」では復元に向けた取り組みもご覧いただけます。
 
火災前の2019年2月に復元工事が完了した「御内原（おうちばら）エリア」や「東（あがり）のアザナ」も見学でき、
晴れた日の東のアザナからは首里城公園一帯や那覇の街並みを一望できます。
その他、園内には守礼門、園比屋武御嶽石門など、貴重な文化財や龍潭（りゅうたん）、円覚寺などの歴史的建造物・史跡も散在しています。
 
今しか見ることのできない「首里城」とその周辺の文化財の様子をご覧ください。"
竹富島,〒907-1101 沖縄県八重山郡竹富町字竹富,24.326309,124.0890293155091,,八重山列島の中心である石垣島から南に約6kmの場所に位置する島。海岸線長約9.2kmの平坦でこじんまりとした島内には、白砂の道に赤瓦屋根の家々が続き、そこかしこに色鮮やかな花々が咲く沖縄の原風景が今も残っている。島のおじいが歌う古謡『安里屋ユンタ』を聞きながら水牛車で集落を回る観光ツアーが有名。島内をレンタサイクルや徒歩で回るのもおすすめ。メインのアクセス方法は石垣港からの高速船で、約10分程度で到着する。
西表島,〒907-1542 沖縄県八重山郡竹富町字西表,24.3464015,123.83916364873272,,八重山列島の主島のひとつ。島の約90％は手つかずの原生林で覆われており、イリオモテヤマネコやヤンバルクイナに代表される固有種が多数生息し、「東洋のガラパゴス」の異名を持つ。2021年7月には世界自然遺産に登録され、国内外から高い注目を集めている。島内では豊かな自然環境を活かしたツアーが盛んで、国内最大級のマングローブの森をカヤックで進んだり、最奥の滝を目指してジャングルをトレッキングしたりと遊びの幅が広い。アクセスは石垣島からの高速船で、所要時間40分程度で到着する。
国際通り,〒900-0014 沖縄県那覇市松尾・牧志周辺,35.2514757,139.1615855,,那覇のメインストリート・国際通りは、“奇跡の１マイル”と呼ばれている。第２次大戦ですべて焼き尽された町から驚異的な復興を遂げ、沖縄人パワーのシンボル的存在となった。パレットくもじ前から安里三差路までの１．６ｋｍには飲食店やブティックが軒を連ね、１日中人通りが絶えない。脇に広がる“市場本通り”“平和通り”“公設市場”などの路地は、一種バザール的なムードで、見て歩くだけでも充分楽しめる。
アメリカンビレッジ,〒904-0115 沖縄県中頭郡北谷町美浜9-1,26.3165214,127.7573637,https://www.okinawa-americanvillage.com/,沖縄本島北谷町にあるショッピング・エンターテイメントエリア。名前の通り、沖縄文化とアメリカ文化が見事に融合した異国感溢れる雰囲気が特徴的。エリア内にはファッション・グルメ・映画館・ライブハウスなどが立ち並ぶ。すぐ近くにある「サンセットビーチ」は、水平線に沈む美しい夕日の景色を見られる人気の観光スポット。那覇空港から車で約20分程度の距離なので、日帰りでも十分に楽しめる。
与那国島,〒907-1801 沖縄県八重山郡与那国町字与那国,24.455595000000002,122.98760597555837,,沖縄本島から西に約520kmに位置する日本最西端の島。群青色の海に囲まれた絶海の孤島には、固有種である与那国馬が生息。ダイビングで海底遺跡を探索するツアーや、島に点在する名所・旧跡巡りなど、多くの魅力に溢れている。7月に行われる伝統行事「豊年祭」では、各集落が披露する舞踊や大綱引きなどを見られる。特産物・花酒（はなさき）は、ここでしか生産されていない貴重なお酒。蒸留所の見学イベントも人気だ。石垣島発の飛行機かフェリーでアクセスできる。
古宇利島,〒905-0406 沖縄県国頭郡今帰仁村字古宇利,26.7037332,128.017934,,那覇から北へ車で約1時間30分、今帰仁村にある有人島。本島とは古宇利大橋で繋がり、車でアクセスできる。周囲約8kmの島の周りには、沖縄らしい白い砂浜と透き通る青い海が広がる。古民家やサトウキビ畑のある風景はどこか懐かしい雰囲気だ。島の北部にはハート型の岩で有名な「ハートロック」や展望塔、カフェがある「古宇利オーシャンタワー」といった人気の観光スポットがある。橋から見える絶景もおすすめ。
ひめゆりの塔,〒901-0344 沖縄県糸満市伊原671-1,26.0963897,127.6907013,,沖縄戦で亡くなった沖縄師範学校女子部と沖縄県立第一高等学校の教師・生徒のための慰霊碑。２校の生徒は沖縄戦中「ひめゆり学徒隊」として沖縄陸軍病院に動員された。隣接する資料館では、生存者の証言映像手記、遺品などの展示を通して戦争の悲惨さや平和の尊さを学ぶことができる。
波照間島,沖縄県八重山郡竹富町字波照間,24.0587455,123.78215537332564,,波照間島は有人島としては日本最南端の島で、民家は珊瑚石灰岩の石垣とフクギの屋敷林に囲まれ、赤瓦の屋根が美しい。島は、北部落、南部落、前部落、名石部落、冨嘉部落の5集落から成るが、増産を目的とした琉球王府の命によって幾度か分村を余儀なくされ、多くの人が他島へ移された歴史がある。
小浜島,〒907-1221 沖縄県八重山郡竹富町字小浜,24.339113,123.98013927991886,,八重山地方の離島。さとうきび畑が広がるのどかな島だ。島の真ん中にある大岳は海抜99mの山で、頂上は海を360度見渡せる展望台。竹富島や西表島など8つの島が望めるほか、晴れていれば波照間島も見える。大きなマンタの展望台が目印の海人公園やマングローブの群落ヒルギ自生区なども見どころ。一番近い島である西表島との海峡「ヨナラ水道」はマンタの通り道としても有名で、時期になるとダイバーやシュノーケラーで賑わう。
万座毛,沖縄県国頭郡恩納村字恩納,26.5050087,127.8502564,http://www.vill.onna.okinawa.jp/,沖縄本島中部の恩納村に位置する、琉球石灰岩でできた断崖絶壁。沖縄海岸国定公園に認定されている景勝地で、標高約20mの絶壁から望む東シナ海は見晴らし抜群。象の鼻のような奇岩があり、少し離れた場所から海や水平線に沈む夕日を背景に眺めるのがおすすめ。崖上にはオキナワスミレなどの沖縄の固有種も生育している。海岸沿いには大人の足で約20ほどで回れる遊歩道もあり、散策を楽しめる。2020年に休憩スペースや展望台、ショップが入る万座毛活性化施設がオープン。
座間味島,〒901-3402 沖縄県島尻郡座間味村字座間味,26.2349547,127.30191226900453,,那覇市の西約40kmに位置し、慶良間諸島に属する島。“ケラマブルー”と称される世界屈指の透明度を誇る海が有名だ。夏はダイビングやカヤックといったマリンスポーツ、冬は子育てにやってくるザトウクジラを観るホエールウォッチングが盛ん。「ミシュラン・グリーンガイド・ジャポン」で二つ星の古座間味ビーチや、古座間味ビーチや渡嘉敷島を望める高月山展望台など見どころは多い。グルメなら座間味の名産もずくを麺に練りこんだ「もずくそば」がおすすめ。那覇から高速船の直行便で約50分。
おきなわワールド,〒901-0616 沖縄県南城市玉城字前川1336,26.1398284,127.7490139,,"おきなわワールドは、沖縄の魅力を凝縮した沖縄屈指の観光スポットです。園内には、国内最大級の鍾乳洞「玉泉洞」、築100年以上経た古い民家を数棟移築し、昔の沖縄の町並みが再現されているほか、そこで伝統工芸の実演と体験教室が開かれている「琉球王国城下町」、沖縄の伝統芸能であるエイサーやハブショーが楽しめるアトラクションエリア、沖縄そばや地ビールなどが味わえるグルメエリア、沖縄最大級の売場を誇るお土産屋などがあります。また、玉泉洞内の未公開エリアを探検する期間限定ツアーやセグウェイで園内を巡るツアーなども開催。沖縄の自然、食、文化などをまとめて知られることがおきなわワールドの人気の理由です。おきなわワールドへは、空港から車で約30分となっています。
アソビューでは、おきなわワールドのお得なクーポンを販売中。また、おきなわワールドの割引チケットはスマホでの事前購入となるので、入り口でスマホを見せるだけとスムーズに入場できます。おきなわワールドのお得なクーポンを使って、様々な面から沖縄を楽しんでみましょう！"
久高島,沖縄県南城市知念字久高,26.162827999999998,127.8954675269393,https://kudaka-island.com/,沖縄本島南部東海岸に位置する南城市の離島。琉球民族発祥の地といわれている。琉球を創造した神が舞い降りた地といわれ、琉球王朝時代には国王の巡礼地だった。島内には祈りの場や史跡が残っている。遊泳禁止の神聖な浜「イシキ浜」や海水の透明度の高い美しいビーチ「メーギ浜」、神秘的な洞窟がある「カベール岬」など観光スポットは多彩。移動はレンタサイクルが便利だ。グルメでは久高島特産のイラブー汁や久高島の麦を使ったクラフトビールがおすすめ。
伊江島,〒905-0505 沖縄県国頭郡伊江村,26.7217095,127.78983020379746,http://www.iejima.org,沖縄本島・本部半島の北西約9kmに浮かぶ島。美ら海水族館から見えるトンガリ頭のような形をした城山が目印だ。島内では、放牧された伊江島牛が草を食む姿や島に群生するテッポウユリなど豊かな自然と触れ合える。おすすめ観光スポットは、断崖絶壁と美しい青い海が織りなす絶景といわれる湧出（ワジー）。パワースポットに興味があるのなら、千人洞（ニャティア）と呼ばれる洞窟も楽しめる。ここには「ビジル石」があり女性が持ち上げると子宝に恵まれるといわれている。
真栄田岬,沖縄県国頭郡恩納村字真栄田,26.4462842,127.7713649,http://www.vill.onna.okinawa.jp/,沖縄県那覇市から北に約1時間車を走らせると現れる恩納村エリアの岬。ダイビングとシュノーケリングスポットで人気を博す「青の洞窟」で知られる。岬の展望台からは、プライベート感のある入り江と青色のグラデーションがきれいな海や、2021年7月に世界自然遺産に登録された北部やんばるエリアを望める。周囲には、海鮮料理や琉球料理店をはじめ、おしゃれなカフェやイタリアンレストランなどグルメも充実している。
水納島,〒905-0227 沖縄県国頭郡本部町瀬底水納,26.64767115,127.81791090691782,,沖縄本島の北部、本部半島の沖合に浮かぶ三日月形の島。特徴的な形から、別名クロワッサンアイランドと呼ばれ親しまれている。島の周りは遠浅で、見渡す限りのサンゴ礁地帯。カラフルな魚も泳ぎ周り、ダイビングやシュノーケリングに最適だ。水納ビーチに隣接している総合案内所には、更衣室やロッカーもある。浮き輪やパラソルなどのレンタルサービスから軽食まで充実しているパーラーもあり、気軽に海水浴を楽しめる。
斎場御嶽,〒901-1511 沖縄県南城市知念字久手堅539,26.1723583,127.8263726,https://okinawa-nanjo.jp/sefa/,平成12年12月世界遺産。琉球最高の聖地で、アマミキヨが造った七御嶽のひとつとされる。国王の参詣や聞得大君（琉球の最高神女）の即位儀礼などが行われた。「セーファ」とは「霊力に豊に満ちている場所」の意味である。
沖縄こどもの国,〒904-0021 沖縄県沖縄市胡屋5-7-1,26.3276961,127.8035022,,沖縄こどもの国は、動物園と子供向けミュージアムが融合したテーマパークです。日本最南端となる動物園では琉球弧に生息する生き物をはじめ150種類の生き物を飼育しており、ミュージアムでは知恵や感性を刺激するワークショップや体験プログラム、企画展なども開催しています。お子様といっしょに、不思議やおどろきを見つけにお越しください。
川平湾,〒907-0453 沖縄県石垣市字川平,24.4528003,124.143836,,石垣島北西部にある湾で、島きっての景勝地。湾内には透明度の高いブルーの海が広がっており、太陽光が指す位置や潮の満ち引きによって濃淡が変化。その美しさから日本百景にも選ばれている。夕暮れ時は湾内に浮かぶ小島が夕日に照らされ、美しいシルエットが映し出される様も趣深い。湾ではアクティビティ体験も盛ん。ダイビングやシュノーケルのほか、船の底が透明なグラスボートに乗って海の中を観賞するのもおすすめだ。近年人気の高いSUPにも挑戦できる。
瀬底島,〒905-0227 沖縄県国頭郡本部町字瀬底,26.647192,127.8648996,http://www.town.motobu.okinawa.jp/,美ら海水族館から車で行ける一番近い島。瀬底大橋を渡ると中央部に、沖縄らしい赤瓦屋根の古民家が立ち並ぶ集落がある。そのまま真っ直ぐ通り向けると、白砂が美しい瀬底ビーチに到着。海の透明度も抜群だ。土着の文化も魅力的。とくに、舞踊や大綱引きが繰り広げられる「豊年祭」と、角をぶつけ合うヤギの戦いが迫力満点な「ピージャーオーラサイ」は島の2大イベント。どちらも見ものなので、開催時期にあわせて出かけるのがおすすめ。
伊良部大橋,〒906-0000 沖縄県宮古島市,24.7967673,125.2392578,https://www.pref.okinawa.jp/site/doboku/doboku-miyako/doroseibi/irabuoohashi.html,宮古島と伊良部島を結ぶ橋として2015年に開通。全長は3540mで、無料で渡れる橋としては日本最長だ。うねりながらアップダウンしている形が特徴的。池間大橋・来間大橋とともに宮古島三大大橋として有名で、宮古島観光の人気のスポットのひとつでもある。橋の両サイドには、宮古ブルーの名で称えられる美しい海が広がり、ドライブに最適。夕方なら夕日と海と橋のコラボレーションはフォトジェニックだ。
今帰仁城跡,〒905-0428 沖縄県国頭郡今帰仁村今泊4874,26.6914906,127.9291076,,"今帰仁城跡は、世界遺産「琉球王国のグスク及び関連遺産群」のひとつに数えられる沖縄北部の史跡です。もとは標高90～100mの丘の上に築かれた琉球統一前の北山王の主城で、敷地面積は約7万9千平方メートル。城の規模は""那覇城""とほぼ同程度で、城壁のディテールが美しい沖縄屈指の名城として知られていました。現在でも城を形づくる""郭""や、""大隅の城壁""と呼ばれる美しい曲線の城壁、正門の""平郎門（へいろうもん）""など、世界遺産らしい素晴らしい景観が楽しめます。また、敷地内の「今帰仁村歴史文化センター」で今帰仁城の歴史的背景が学べるところもポイント。その他、城跡周辺には""ハンタ道""と呼ばれる古道、昔の今帰仁村跡も点在しています。アソビューでは、今帰仁城跡の割引きクーポンを販売中。観覧料が20％割引になる大変お得な内容です。また、割引クーポンはスマホでの事前購入となるので、入口でスマホを見せるだけと入場もスムーズ。今帰仁城跡の割引クーポンを使って、お得に世界遺産を満喫してみてはいかがでしょうか。"
黒島,〒907-1311 沖縄県八重山郡竹富町字黒島,32.600454,128.83392360555555,,石垣島と西表島の間に位置する島で、八重山列島のひとつ。昔ながらの景観が残る東筋集落から黒島港までの道は「日本の道100選」に選ばれている。のどかで自然が豊かな島の観光スポットは、ウミガメが産卵にくるという「西の浜」や、黒島港と東筋集落を結んでいる県道にある「黒島展望台」があり、美しい海ではマリンスポーツも楽しめる。傾斜のない平らな島なので、サイクリングでの観光がおすすめ。島は自転車で約1時間で回れる。
石垣島鍾乳洞,〒907-0023 沖縄県石垣市石垣1666,24.3626,124.1549,,
美らヤシパークオキナワ・東南植物楽園,〒904-2143 沖縄県沖縄市知花2146,26.376019,127.80677,,"美らヤシパークオキナワ・東南植物楽園は、1,300種類以上の熱帯・亜熱帯植物を鑑賞できる沖縄市の植物園リゾートです。敷地内は大きく「水上楽園」と「植物園」の2つのエリアに分かれており、世界一長寿の木・リュウケツジュや日本一のユスラヤシ並木など、それぞれに見どころたっぷりの植物がお出迎えしてくれます。その他、ヤギやカピバラとふれあえる「動物とふれあい広場」や、植物を眺めるウォーキングツアー、トラム（電動カート）ツアーなどもオススメです。アクセスは那覇空港より車で約60分。沖縄旅行の際はぜひ一度足をお運びください。"
琉球村,〒904-0416 沖縄県国頭郡恩納村山田1130,26.42962575,127.77531413622545,,琉球村は、古き良き琉球王国時代の沖縄にタイムスリップした気分を味わえる観光テーマパーク。園内では、民謡や琉球芸能、エイサーショーなどのアトラクションがおこなわれ、水牛が働く昔ながらの光景を再現した砂糖舎や国登録有形文化財に指定されている古民家を見学できます。フリーゾーンの「沖縄の駅ちゃんぷるー」ではシーサーの絵付け体験や琉球衣装の着付けなど様々な沖縄文化を体験できる体験エリアや沖縄そばやタコライスなどの沖縄の定番料理を味わえるレストランも利用できます。琉球村へは、那覇空港から車で約1時間半となっています。 アソビューでは、お得なクーポンを販売中。また、割引チケットはスマホでの事前購入となるので、入り口でスマホを見せるだけとスムーズに入場できます。琉球村のお得なクーポンを使って沖縄を満喫しましょう！
ビオスの丘,〒904-1114 沖縄県うるま市石川嘉手苅961-30,26.4216719,127.796857,,"ビオスの丘は、亜熱帯の森で存分に自然遊びができる、沖縄県うるま市の""遊び""の一大スポットです。らんの花々や季節の植物が咲き誇る園内には、ゆったり歩ける約2kmの遊歩道をはじめ、カヌーや湖水観賞舟などのマリンレジャー、アスレチック、動物とふれあえるスポットなど、幅広いコンテンツが用意されています。園内5か所に設置された高さ約5mの巨大ブランコ、水牛車やロードトレインなどの園内周遊系のコンテンツなども揃い、大人から子どもまでワクワク楽しめること間違いなし。その他、沖縄ならではのメニューが味わえる各種お食事処や、琉装体験・琉球文化体験が満喫できる施設もあるので、1日のびのびと過ごすのにピッタリです。アソビューでは、ビオスの丘のクーポンを販売中。「入園券」や「入園券＋乗船セット」など、大変充実した内容となっています。また、クーポンはスマホでの事前購入となるので、入口でスマホを見せるだけと入場もスムーズ。ビオスの丘のクーポンを使って、沖縄ならではの自然遊びをお得に体験してみてはいかがでしょうか。"
大石林山,〒905-1422 沖縄県国頭郡国頭村字宜名真1241番地,26.8583323,128.255167,,大石林山（だいせきりんざん）は、亜熱帯の大自然を体感できる沖縄北部の山々。「やんばる国立公園」に指定されており、沖縄本島随一のパワースポットとして、沖縄北部ヤンバルの観光スポットとして広く人気を集めています。東京ドーム約11個分という雄大な敷地の中には、カルスト台地が2億年の歳月をかけてつくり出した巨石の数々をはじめ、亜熱帯の森、美しい海を見渡す大パノラマなど、見どころある景色が満載です。散策コースとしては、「巨石・石林感動コース」「美ら海展望台コース」「バリアフリーコース」「亜熱帯自然林コース」の4種類を完備。どのコースも子供から大人まで楽しく歩けるようになっています。特にバリアフリーコースにはゆるやかなスロープが設置されているため、ご年配の方や車イスの方でも安心。世界最北端の熱帯カルスト地形の圧倒的な景観を、存分に堪能できます。
